round,variable,country,lang_name,iso_639_3,iso_scope,iso_ref_name,iso_alpha2
4,Q3OTHER,14,abi,mis,S,Uncoded languages,NG
4,Q3OTHER,14,abua,abn,I,Abua,NG
4,Q3OTHER,14,adun,mfn,I,Cross River Mbembe,NG
4,Q3OTHER,14,afikpo,ibo,I,Igbo,NG
4,Q3OTHER,14,ahuda,mis,S,Uncoded languages,NG
4,Q3OTHER,14,aka,mis,S,Uncoded languages,NG
4,Q3OTHER,18,akumu,mis,S,Uncoded languages,UG
4,Q3OTHER,14,akwandara,gwn,I,Gwandara,NG
4,Q3OTHER,14,andoni,ann,I,Obolo,NG
4,Q3OTHER,14,angas,anc,I,Ngas,NG
4,Q3OTHER,14,ankwai,ank,I,Goemai,NG
4,Q3OTHER,6,arabic,acx,I,Omani Arabic,KE
4,Q3OTHER,6,arabic,ara,M,Arabic,KE
4,Q3OTHER,14,arago,ala,I,Alago,NG
4,Q3OTHER,18,aringa,luc,I,Aringa,UG
4,Q3OTHER,16,asian,hin,I,Hindi,ZA
4,Q3OTHER,16,asian/indian,hin,I,Hindi,ZA
4,Q3OTHER,5,assin,mis,S,Uncoded languages,GH
4,Q3OTHER,14,awak,awo,I,Awak,NG
4,Q3OTHER,14,awori,yor,I,Yoruba,NG
4,Q3OTHER,14,azoqo,mis,S,Uncoded languages,NG
4,Q3OTHER,14,babur,bwr,I,Bura-Pabir,NG
4,Q3OTHER,14,bachama,bcy,I,Bacama,NG
4,Q3OTHER,14,bada,bde,I,Bade,NG
4,Q3OTHER,6,bajun,swh,I,Swahili (individual language),KE
4,Q3OTHER,6,bajun,swa,M,Swahili (macrolanguage),KE
4,Q3OTHER,15,balante,bjt,I,Balanta-Ganja,SN
4,Q3OTHER,14,balawa,mis,S,Uncoded languages,NG
4,Q3OTHER,5,banda,nfr,I,Nafaanra,GH
4,Q3OTHER,5,basare,bud,I,Ntcham,GH
4,Q3OTHER,14,bassa,bzw,I,Basa (Nigeria),NG
4,Q3OTHER,5,basseli,bud,I,Ntcham,GH
4,Q3OTHER,14,bazanfara,mis,S,Uncoded languages,NG
4,Q3OTHER,14,bekwaira,mis,S,Uncoded languages,NG
4,Q3OTHER,3,bella,mis,S,Uncoded languages,BF
4,Q3OTHER,5,bemuba,bim,I,Bimoba,GH
4,Q3OTHER,14,betem,mis,S,Uncoded languages,NG
4,Q3OTHER,14,bette,btt,I,Bete-Bendi,NG
4,Q3OTHER,5,bimoba,bim,I,Bimoba,GH
4,Q3OTHER,14,birom,bom,I,Berom,NG
4,Q3OTHER,14,bisa,bqp,I,Busa,NG
4,Q3OTHER,5,bisab,bib,I,Bissa,GH
4,Q3OTHER,6,borana,gax,I,Borana-Arsi-Guji Oromo,KE
4,Q3OTHER,6,borana,orm,M,Oromo,KE
4,Q3OTHER,14,brass,mis,S,Uncoded languages,NG
4,Q3OTHER,5,brefo,mis,S,Uncoded languages,GH
4,Q3OTHER,5,brosa,any,I,Anyin,GH
4,Q3OTHER,20,budya,mis,S,Uncoded languages,ZW
4,Q3OTHER,5,builsa,bwu,I,Buli (Ghana),GH
4,Q3OTHER,5,bule,bwu,I,Buli (Ghana),GH
4,Q3OTHER,5,busanga,mis,S,Uncoded languages,GH
4,Q3OTHER,5,buzanga,mis,S,Uncoded languages,GH
4,Q3OTHER,19,bwile,bwc,I,Bwile,ZM
4,Q3OTHER,14,calabar,efi,I,Efik,NG
4,Q3OTHER,20,changani,tso,I,Tsonga,ZW
4,Q3OTHER,12,cheua,nya,I,Nyanja,MZ
4,Q3OTHER,12,chewa,nya,I,Nyanja,MZ
4,Q3OTHER,20,chewa,nya,I,Nyanja,ZW
4,Q3OTHER,12,chewe,nya,I,Nyanja,MZ
4,Q3OTHER,14,chibok,ckl,I,Cibak,NG
4,Q3OTHER,16,chichewa,nya,I,Nyanja,ZA
4,Q3OTHER,20,chikaranga,sna,I,Shona,ZW
4,Q3OTHER,12,chimanica,mxc,I,Manyika,MZ
4,Q3OTHER,12,chiteue,twx,I,Tewe,MZ
4,Q3OTHER,12,chiute,twx,I,Tewe,MZ
4,Q3OTHER,19,chokwe,cjk,I,Chokwe,ZM
4,Q3OTHER,12,chona,mis,S,Uncoded languages,MZ
4,Q3OTHER,12,chuabo,chw,I,Chuwabu,MZ
4,Q3OTHER,12,coti,eko,I,Koti,MZ
4,Q3OTHER,14,cross river yala,yba,I,Yala,NG
4,Q3OTHER,5,dagaari,dga,I,Southern Dagaare,GH
4,Q3OTHER,5,dagate,dga,I,Southern Dagaare,GH
4,Q3OTHER,5,dagomba,dag,I,Dagbani,GH
4,Q3OTHER,14,diemak,mis,S,Uncoded languages,NG
4,Q3OTHER,6,digo,dig,I,Digo,KE
4,Q3OTHER,3,dogon,djm,I,Jamsay Dogon,BF
4,Q3OTHER,3,dogon,dtm,I,Tomo Kan Dogon,BF
4,Q3OTHER,5,dolime,wlx,I,Wali (Ghana),GH
4,Q3OTHER,20,dombe,dov,I,Dombe,ZW
4,Q3OTHER,14,eapie,mis,S,Uncoded languages,NG
4,Q3OTHER,14,ecthie,mis,S,Uncoded languages,NG
4,Q3OTHER,5,efutu,afu,I,Awutu,GH
4,Q3OTHER,14,egbema,ijc,I,Izon,NG
4,Q3OTHER,14,egbma,ijc,I,Izon,NG
4,Q3OTHER,14,egede,ige,I,Igede,NG
4,Q3OTHER,14,eggon,ego,I,Eggon,NG
4,Q3OTHER,14,ejagam,etu,I,Ejagham,NG
4,Q3OTHER,14,eleme,elm,I,Eleme,NG
4,Q3OTHER,14,epeye,ekp,I,Ekpeye,NG
4,Q3OTHER,14,epia,epi,I,Epie,NG
4,Q3OTHER,5,fanti,fat,I,Fanti,GH
4,Q3OTHER,5,fanti,aka,M,Akan,GH
4,Q3OTHER,5,frafra,gur,I,Farefare,GH
4,Q3OTHER,6,gabra,mis,S,Uncoded languages,KE
4,Q3OTHER,14,gbagyi,gbr,I,Gbagyi,NG
4,Q3OTHER,6,giriama,nyf,I,Giryama,KE
4,Q3OTHER,14,glanda,glw,I,Glavda,NG
4,Q3OTHER,14,gomai,mis,S,Uncoded languages,NG
4,Q3OTHER,5,gonja,gjn,I,Gonja,GH
4,Q3OTHER,5,gruma,bim,I,Bimoba,GH
4,Q3OTHER,5,gruni,gur,I,Farefare,GH
4,Q3OTHER,5,grussi,xsm,I,Kasem,GH
4,Q3OTHER,5,guan,gwx,I,Gua,GH
4,Q3OTHER,6,gujarat,guj,I,Gujarati,KE
4,Q3OTHER,14,gwari,gbr,I,Gbagyi,NG
4,Q3OTHER,1,haoussa,hau,I,Hausa,BJ
4,Q3OTHER,11,haoussa,hau,I,Hausa,ML
4,Q3OTHER,14,higgi,hig,I,Kamwe,NG
4,Q3OTHER,14,ibani,iby,I,Ibani,NG
4,Q3OTHER,14,ichen,ich,I,Etkywan,NG
4,Q3OTHER,19,icishila,mis,S,Uncoded languages,ZM
4,Q3OTHER,14,igara,igl,I,Igala,NG
4,Q3OTHER,14,igede,ige,I,Igede,NG
4,Q3OTHER,6,indian,guj,I,Gujarati,KE
4,Q3OTHER,16,indian,hin,I,Hindi,ZA
4,Q3OTHER,14,ipia,mis,S,Uncoded languages,NG
4,Q3OTHER,7,isixhoza,xho,I,Xhosa,LS
4,Q3OTHER,14,iyala,yba,I,Yala,NG
4,Q3OTHER,14,jukun,jbu,I,Jukun Takum,NG
4,Q3OTHER,14,jukun donga,jbu,I,Jukun Takum,NG
4,Q3OTHER,3,kado,mis,S,Uncoded languages,BF
4,Q3OTHER,14,kagoro,kcg,I,Tyap,NG
4,Q3OTHER,14,kagoru,kcg,I,Tyap,NG
4,Q3OTHER,17,kakaguru,mis,S,Uncoded languages,TZ
4,Q3OTHER,11,kakolo,xkg,I,Kagoro,ML
4,Q3OTHER,18,kakwa,keo,I,Kakwa,UG
4,Q3OTHER,14,kalabari,ijn,I,Kalabari,NG
4,Q3OTHER,14,kambari,tsw,I,Tsishingini,NG
4,Q3OTHER,14,kambu,lmp,I,Limbum,NG
4,Q3OTHER,3,karakan,mis,S,Uncoded languages,BF
4,Q3OTHER,18,karamajong,mis,S,Uncoded languages,UG
4,Q3OTHER,20,karanga,sna,I,Shona,ZW
4,Q3OTHER,14,kari-kari,kai,I,Karekare,NG
4,Q3OTHER,5,kasem,xsm,I,Kasem,GH
4,Q3OTHER,5,kasina,xsm,I,Kasem,GH
4,Q3OTHER,14,kataf,kcg,I,Tyap,NG
4,Q3OTHER,14,kataf(atyap),kcg,I,Tyap,NG
4,Q3OTHER,14,khana,ogo,I,Khana,NG
4,Q3OTHER,10,khokhola,kzn,I,Kokola,MW
4,Q3OTHER,17,kial-yorobi,mis,S,Uncoded languages,TZ
4,Q3OTHER,17,kiarusha,mis,S,Uncoded languages,TZ
4,Q3OTHER,17,kiasi,mis,S,Uncoded languages,TZ
4,Q3OTHER,17,kibarbaik,mis,S,Uncoded languages,TZ
4,Q3OTHER,17,kibembe,bmb,I,Bembe,TZ
4,Q3OTHER,17,kibena,bez,I,Bena (Tanzania),TZ
4,Q3OTHER,17,kibondei,bou,I,Bondei,TZ
4,Q3OTHER,17,kibungu,wun,I,Bungu,TZ
4,Q3OTHER,17,kidigo,dig,I,Digo,TZ
4,Q3OTHER,17,kiha,haq,I,Ha,TZ
4,Q3OTHER,17,kihangaza,han,I,Hangaza,TZ
4,Q3OTHER,17,kihindi,hin,I,Hindi,TZ
4,Q3OTHER,17,kiiraqi,mis,S,Uncoded languages,TZ
4,Q3OTHER,17,kijaluo,mis,S,Uncoded languages,TZ
4,Q3OTHER,17,kijita,jit,I,Jita,TZ
4,Q3OTHER,17,kikerewe,ked,I,Kerewe,TZ
4,Q3OTHER,17,kikimbu,kiv,I,Kimbu,TZ
4,Q3OTHER,17,kikine,ssc,I,Suba-Simbiti,TZ
4,Q3OTHER,17,kikinga,zga,I,Kinga,TZ
4,Q3OTHER,17,kikonongo,kcz,I,Konongo,TZ
4,Q3OTHER,17,kikutu,kdc,I,Kutu,TZ
4,Q3OTHER,17,kikwaya,kya,I,Kwaya,TZ
4,Q3OTHER,17,kilambya,lai,I,Lambya,TZ
4,Q3OTHER,17,kilindi,mis,S,Uncoded languages,TZ
4,Q3OTHER,17,kilungwa,mis,S,Uncoded languages,TZ
4,Q3OTHER,17,kimakua,mgh,I,Makhuwa-Meetto,TZ
4,Q3OTHER,17,kimalila,mgq,I,Malila,TZ
4,Q3OTHER,17,kimambwe,mgr,I,Mambwe-Lungu,TZ
4,Q3OTHER,17,kimatengo,mgv,I,Matengo,TZ
4,Q3OTHER,17,kimatumbi,mgw,I,Matumbi,TZ
4,Q3OTHER,17,kimbembe,mis,S,Uncoded languages,TZ
4,Q3OTHER,17,kimbulu,mis,S,Uncoded languages,TZ
4,Q3OTHER,17,kimbungo,mis,S,Uncoded languages,TZ
4,Q3OTHER,17,kimeru,rwk,I,Rwa,TZ
4,Q3OTHER,12,kimwani,wmw,I,Mwani,MZ
4,Q3OTHER,17,kimwera,mwe,I,Mwera (Chimwera),TZ
4,Q3OTHER,17,kindali,ndh,I,Ndali,TZ
4,Q3OTHER,17,kindamba,ndj,I,Ndamba,TZ
4,Q3OTHER,17,kindendeule,dne,I,Ndendeule,TZ
4,Q3OTHER,17,kindengereko,ndg,I,Ndengereko,TZ
4,Q3OTHER,17,kingindo,nnq,I,Ngindo,TZ
4,Q3OTHER,17,kingoni,ngo,I,Ngoni,TZ
4,Q3OTHER,17,kinyagazwa,mis,S,Uncoded languages,TZ
4,Q3OTHER,17,kinyambo,now,I,Nyambo,TZ
4,Q3OTHER,17,kinyamwanga,mwn,I,Nyamwanga,TZ
4,Q3OTHER,17,kinyiha,nkt,I,Nyika (Tanzania),TZ
4,Q3OTHER,17,kipangwa,pbr,I,Pangwa,TZ
4,Q3OTHER,17,kipimbwe,piw,I,Pimbwe,TZ
4,Q3OTHER,17,kipogoro,poy,I,Pogolo,TZ
4,Q3OTHER,6,kipsigis,sgc,I,Kipsigis,KE
4,Q3OTHER,6,kipsigis,kln,M,Kalenjin,KE
4,Q3OTHER,17,kirangi,lag,I,Langi,TZ
4,Q3OTHER,17,kiryeri,ssc,I,Suba-Simbiti,TZ
4,Q3OTHER,17,kisafwa,sbk,I,Safwa,TZ
4,Q3OTHER,17,kisagara,sbm,I,Sagala,TZ
4,Q3OTHER,17,kisambaa,ksb,I,Shambala,TZ
4,Q3OTHER,17,kisangu,sbp,I,Sangu (Tanzania),TZ
4,Q3OTHER,17,kishihiri,mis,S,Uncoded languages,TZ
4,Q3OTHER,17,kishirazi,mis,S,Uncoded languages,TZ
4,Q3OTHER,17,kishubi,suj,I,Shubi,TZ
4,Q3OTHER,17,kisuba,ssc,I,Suba-Simbiti,TZ
4,Q3OTHER,17,kisumbwa,suw,I,Sumbwa,TZ
4,Q3OTHER,17,kitumbatu,mis,S,Uncoded languages,TZ
4,Q3OTHER,17,kividunda,vid,I,Vidunda,TZ
4,Q3OTHER,17,kiwanji,wbi,I,Vwanji,TZ
4,Q3OTHER,17,kiyao,yao,I,Yao,TZ
4,Q3OTHER,17,kizanaki,zak,I,Zanaki,TZ
4,Q3OTHER,17,kizaramo,zaj,I,Zaramo,TZ
4,Q3OTHER,17,kizigua,ziw,I,Zigula,TZ
4,Q3OTHER,17,kizinza,zin,I,Zinza,TZ
4,Q3OTHER,5,konkoba,xon,I,Konkomba,GH
4,Q3OTHER,20,korekore,sna,I,Shona,ZW
4,Q3OTHER,5,kotokoli,kdh,I,Tem,GH
4,Q3OTHER,18,kumam,kdi,I,Kumam,UG
4,Q3OTHER,19,kunda,nya,I,Nyanja,ZM
4,Q3OTHER,5,kusal,kus,I,Kusaal,GH
4,Q3OTHER,5,kusasi,kus,I,Kusaal,GH
4,Q3OTHER,14,kuteb,kub,I,Kutep,NG
4,Q3OTHER,14,kwalla,kwl,I,Kofyar,NG
4,Q3OTHER,19,lala,leb,I,Lala-Bisa,ZM
4,Q3OTHER,19,lamba,lam,I,Lamba,ZM
4,Q3OTHER,5,larteh,lar,I,Larteh,GH
4,Q3OTHER,5,lekpekpe,lip,I,Sekpele,GH
4,Q3OTHER,12,lolo,llb,I,Lolo,MZ
4,Q3OTHER,12,lomue,ngl,I,Lomwe,MZ
4,Q3OTHER,12,lomwe,ngl,I,Lomwe,MZ
4,Q3OTHER,19,luchazi,lch,I,Luchazi,ZM
4,Q3OTHER,18,lululi,ruc,I,Ruuli,UG
4,Q3OTHER,19,lunda kazembe,bem,I,Bemba (Zambia),ZM
4,Q3OTHER,19,lungu,mgr,I,Mambwe-Lungu,ZM
4,Q3OTHER,18,lwamba,rwm,I,Amba (Uganda),UG
4,Q3OTHER,12,macheua,mis,S,Uncoded languages,MZ
4,Q3OTHER,12,makwe,ymk,I,Makwe,MZ
4,Q3OTHER,20,malawian,mis,S,Uncoded languages,ZW
4,Q3OTHER,12,malolo,mis,S,Uncoded languages,MZ
4,Q3OTHER,14,mambilla,mzk,I,Nigeria Mambila,NG
4,Q3OTHER,5,mampruli,maw,I,Mampruli,GH
4,Q3OTHER,5,mamprusi,maw,I,Mampruli,GH
4,Q3OTHER,14,manga,kby,I,Manga Kanuri,NG
4,Q3OTHER,14,manga,kau,M,Kanuri,NG
4,Q3OTHER,12,manhembane,mis,S,Uncoded languages,MZ
4,Q3OTHER,12,manhungue,mxc,I,Manyika,MZ
4,Q3OTHER,20,manica (mozambican),mxc,I,Manyika,ZW
4,Q3OTHER,20,manyika,mxc,I,Manyika,ZW
4,Q3OTHER,12,marenge,vmr,I,Marenje,MZ
4,Q3OTHER,12,marenje,vmr,I,Marenje,MZ
4,Q3OTHER,14,marghi,mrt,I,Marghi Central,NG
4,Q3OTHER,15,marocain,mis,S,Uncoded languages,SN
4,Q3OTHER,12,mateue,mis,S,Uncoded languages,MZ
4,Q3OTHER,12,mathewe,twx,I,Tewe,MZ
4,Q3OTHER,12,matsua,tsc,I,Tswa,MZ
4,Q3OTHER,20,maungwe,mis,S,Uncoded languages,ZW
4,Q3OTHER,14,mbembe,mfn,I,Cross River Mbembe,NG
4,Q3OTHER,19,mbunda,mck,I,Mbunda,ZM
4,Q3OTHER,14,michica,mis,S,Uncoded languages,NG
4,Q3OTHER,14,minyam,mis,S,Uncoded languages,NG
4,Q3OTHER,5,mossi,mos,I,Mossi,GH
4,Q3OTHER,20,mozambican,mis,S,Uncoded languages,ZW
4,Q3OTHER,12,muani,wmw,I,Mwani,MZ
4,Q3OTHER,12,muauni,wmw,I,Mwani,MZ
4,Q3OTHER,13,mufwe,fwe,I,Fwe,NA
4,Q3OTHER,14,mumuye,mzm,I,Mumuye,NG
4,Q3OTHER,12,muniga,mhm,I,Makhuwa-Moniga,MZ
4,Q3OTHER,12,munoga,mhm,I,Makhuwa-Moniga,MZ
4,Q3OTHER,14,muryang,mis,S,Uncoded languages,NG
4,Q3OTHER,14,mwaghawul,sur,I,Mwaghavul,NG
4,Q3OTHER,7,mzema,mis,S,Uncoded languages,LS
4,Q3OTHER,5,nafana,nfr,I,Nafaanra,GH
4,Q3OTHER,20,nambia,mis,S,Uncoded languages,ZW
4,Q3OTHER,20,nambya,nmq,I,Nambya,ZW
4,Q3OTHER,10,namwanga,mwn,I,Nyamwanga,MW
4,Q3OTHER,5,nanum,dag,I,Dagbani,GH
4,Q3OTHER,10,ndali,ndh,I,Ndali,MW
4,Q3OTHER,20,ndau,ndc,I,Ndau,ZW
4,Q3OTHER,19,ndebele,nde,I,North Ndebele,ZM
4,Q3OTHER,14,ndoro,ndr,I,Ndoola,NG
4,Q3OTHER,14,nedere,kmy,I,Koma,NG
4,Q3OTHER,19,ngumbo,mis,S,Uncoded languages,ZM
4,Q3OTHER,12,nhungue,nyu,I,Nyungwe,MZ
4,Q3OTHER,18,nubian,kcn,I,Nubi,UG
4,Q3OTHER,14,numana,nbr,I,Numana-Nunku-Gbantu-Numbu,NG
4,Q3OTHER,20,nyaho (chawa),nya,I,Nyanja,ZW
4,Q3OTHER,20,nyanja,nya,I,Nyanja,ZW
4,Q3OTHER,13,nyemba,mis,S,Uncoded languages,NA
4,Q3OTHER,10,nyika,nkv,I,Nyika (Malawi and Zambia),MW
4,Q3OTHER,19,nyika,nkv,I,Nyika (Malawi and Zambia),ZM
4,Q3OTHER,12,nyungue,nyu,I,Nyungwe,MZ
4,Q3OTHER,5,nzema,nzi,I,Nzima,GH
4,Q3OTHER,14,obubra,mis,S,Uncoded languages,NG
4,Q3OTHER,14,ogaja,mis,S,Uncoded languages,NG
4,Q3OTHER,14,ogbia,ogb,I,Ogbia,NG
4,Q3OTHER,14,okirika,okr,I,Kirike,NG
4,Q3OTHER,14,opobo,mis,S,Uncoded languages,NG
4,Q3OTHER,14,oron,orx,I,Oro,NG
4,Q3OTHER,16,pashto,pbu,I,Northern Pashto,ZA
4,Q3OTHER,16,pashto,pus,M,Pushto,ZA
4,Q3OTHER,6,pokomo,pkb,I,Pokomo,KE
4,Q3OTHER,3,pougouli,pug,I,Phuie,BF
4,Q3OTHER,14,rendere,rin,I,Nungu,NG
4,Q3OTHER,12,ronga,rng,I,Ronga,MZ
4,Q3OTHER,18,rufumbira,kin,I,Kinyarwanda,UG
4,Q3OTHER,18,rulundi,run,I,Rundi,UG
4,Q3OTHER,18,runyarwanda,kin,I,Kinyarwanda,UG
4,Q3OTHER,18,rwandese,kin,I,Kinyarwanda,UG
4,Q3OTHER,18,sabiny,kpz,I,Kupsabiny,UG
4,Q3OTHER,6,saboti,spy,I,Sabaot,KE
4,Q3OTHER,6,saboti,kln,M,Kalenjin,KE
4,Q3OTHER,19,sala,shq,I,Sala,ZM
4,Q3OTHER,11,samogo,dux,I,Duungooma,ML
4,Q3OTHER,13,san,ktz,I,Ju/'hoan,NA
4,Q3OTHER,8,sarpo,krn,I,Sapo,LR
4,Q3OTHER,2,sebanderu,mis,S,Uncoded languages,BW
4,Q3OTHER,5,sefwi,sfw,I,Sehwi,GH
4,Q3OTHER,2,segxereku,mis,S,Uncoded languages,BW
4,Q3OTHER,12,sena,seh,I,Sena,MZ
4,Q3OTHER,2,senajwa,mis,S,Uncoded languages,BW
4,Q3OTHER,19,senga,nse,I,Nsenga,ZM
4,Q3OTHER,2,seshona,sna,I,Shona,BW
4,Q3OTHER,2,sesotho,sot,I,Southern Sotho,BW
4,Q3OTHER,2,setlharwa,mis,S,Uncoded languages,BW
4,Q3OTHER,2,setswapong,two,I,Tswapong,BW
4,Q3OTHER,2,sezezuru,sna,I,Shona,BW
4,Q3OTHER,20,shangani,tso,I,Tsonga,ZW
4,Q3OTHER,12,shona,sna,I,Shona,MZ
4,Q3OTHER,19,shona,sna,I,Shona,ZM
4,Q3OTHER,12,"shona, cheua",sna,I,Shona,MZ
4,Q3OTHER,14,shuwa arab,shu,I,Chadian Arabic,NG
4,Q3OTHER,14,shuwa arab,ara,M,Arabic,NG
4,Q3OTHER,13,sifwe,fwe,I,Fwe,NA
4,Q3OTHER,5,sisila,sil,I,Tumulung Sisaala,GH
4,Q3OTHER,5,sisila,ssl,I,Western Sisaala,GH
4,Q3OTHER,3,sissaba,mis,S,Uncoded languages,BF
4,Q3OTHER,19,swaka,leb,I,Lala-Bisa,ZM
4,Q3OTHER,12,tacuane,tke,I,Takwane,MZ
4,Q3OTHER,5,talensi,gur,I,Farefare,GH
4,Q3OTHER,3,tamacheck,mis,S,Uncoded languages,BF
4,Q3OTHER,5,tampulma,tpm,I,Tampulma,GH
4,Q3OTHER,14,tangale,tan,I,Tangale,NG
4,Q3OTHER,14,tarah,ttr,I,Tera,NG
4,Q3OTHER,20,taura (mozambican),twl,I,Tawara,ZW
4,Q3OTHER,14,tera,ttr,I,Tera,NG
4,Q3OTHER,6,teso,teo,I,Teso,KE
4,Q3OTHER,12,tewe,twx,I,Tewe,MZ
4,Q3OTHER,14,tigum,nza,I,Tigon Mbembe,NG
4,Q3OTHER,14,tigun,nza,I,Tigon Mbembe,NG
4,Q3OTHER,6,tiriki,ida,I,Idakho-Isukha-Tiriki,KE
4,Q3OTHER,6,tiriki,luy,M,Luyia,KE
4,Q3OTHER,19,tokaleya,mis,S,Uncoded languages,ZM
4,Q3OTHER,12,tonga,tso,I,Tsonga,MZ
4,Q3OTHER,13,totela,mis,S,Uncoded languages,NA
4,Q3OTHER,3,toussian,mis,S,Uncoded languages,BF
4,Q3OTHER,14,ugep,yaz,I,Lokaa,NG
4,Q3OTHER,19,ushi,auh,I,Aushi,ZM
4,Q3OTHER,19,usmi,mis,S,Uncoded languages,ZM
4,Q3OTHER,13,uumbundu,umb,I,Umbundu,NA
4,Q3OTHER,5,wa dormu,mis,S,Uncoded languages,GH
4,Q3OTHER,5,waala,wlx,I,Wali (Ghana),GH
4,Q3OTHER,14,waja,wja,I,Waja,NG
4,Q3OTHER,5,wassa,wss,I,Wasa,GH
4,Q3OTHER,10,wiza,leb,I,Lala-Bisa,MW
4,Q3OTHER,12,xiteu,twx,I,Tewe,MZ
4,Q3OTHER,12,xitsua,tsc,I,Tswa,MZ
4,Q3OTHER,14,yakur,yaz,I,Lokaa,NG
4,Q3OTHER,20,yao,yao,I,Yao,ZW
4,Q3OTHER,5,zabrama,mis,S,Uncoded languages,GH
4,Q3OTHER,11,zerma,dje,I,Zarma,ML
4,Q3OTHER,19,zezulu,zul,I,Zulu,ZM
4,Q3OTHER,20,zezuru,sna,I,Shona,ZW
4,Q3OTHER,7,zhoza,xho,I,Xhosa,LS
4,Q3OTHER,5,zugu,mis,S,Uncoded languages,GH
4,Q3OTHER,14,zuru,dri,I,C'Lela,NG
5,Q103OTHER,24,akebou,keu,I,Akebu,TG
5,Q103OTHER,15,badiaranke,mis,S,Uncoded languages,SN
5,Q103OTHER,26,baham,bbj,I,Ghomálá',CM
5,Q103OTHER,26,bandjoun,bbj,I,Ghomálá',CM
5,Q103OTHER,28,bassano foula,fuf,I,Pular,GN
5,Q103OTHER,28,bassano foula,ful,M,Fulah,GN
5,Q103OTHER,21,bhojpuri,bho,I,Bhojpuri,MU
5,Q103OTHER,1,boo,mis,S,Uncoded languages,BJ
5,Q103OTHER,26,dii,dur,I,Dii,CM
5,Q103OTHER,1,ditamari,tbz,I,Ditammari,BJ
5,Q103OTHER,6,eng and swahili,eng,I,English,KE
5,Q103OTHER,24,gangan,mis,S,Uncoded languages,TG
5,Q103OTHER,24,gourma,gux,I,Gourmanchéma,TG
5,Q103OTHER,26,guidar,gid,I,Gidar,CM
5,Q103OTHER,24,haoussa,hau,I,Hausa,TG
5,Q103OTHER,26,haoussa,hau,I,Hausa,CM
5,Q103OTHER,30,isizulu,zul,I,Zulu,SZ
5,Q103OTHER,6,kisii,guz,I,Gusii,KE
5,Q103OTHER,24,kpessi,kef,I,Kpessi,TG
5,Q103OTHER,6,kuria,kuj,I,Kuria,KE
5,Q103OTHER,28,landouma,ldm,I,Landoma,GN
5,Q103OTHER,22,limba,lia,I,West-Central Limba,SL
5,Q103OTHER,22,limba,lma,I,East Limba,SL
5,Q103OTHER,18,lugwere,gwr,I,Gwere,UG
5,Q103OTHER,26,mafa,maf,I,Mafa,CM
5,Q103OTHER,28,manian,mis,S,Uncoded languages,GN
5,Q103OTHER,6,masai,mas,I,Masai,KE
5,Q103OTHER,26,mbamois,mis,S,Uncoded languages,CM
5,Q103OTHER,26,mbo,mbo,I,Mbo (Cameroon),CM
5,Q103OTHER,26,mboum,mdd,I,Mbum,CM
5,Q103OTHER,24,mina,gej,I,Gen,TG
5,Q103OTHER,20,nambya,nmq,I,Nambya,ZW
5,Q103OTHER,20,ndau,ndc,I,Ndau,ZW
5,Q103OTHER,20,nyanja,nya,I,Nyanja,ZW
5,Q103OTHER,1,peulh,fuh,I,Western Niger Fulfulde,BJ
5,Q103OTHER,1,peulh,ful,M,Fulah,BJ
5,Q103OTHER,6,pokot,pko,I,Pökoot,KE
5,Q103OTHER,6,pokot,kln,M,Kalenjin,KE
5,Q103OTHER,12,ronga,rng,I,Ronga,MZ
5,Q103OTHER,19,senga,nse,I,Nsenga,ZM
5,Q103OTHER,7,sethepu,xho,I,Xhosa,LS
5,Q103OTHER,16,shangaan,tso,I,Tsonga,ZA
5,Q103OTHER,22,sherbro,bun,I,Sherbro,SL
5,Q103OTHER,20,shona & ndebele,sna,I,Shona,ZW
5,Q103OTHER,16,siswati,ssw,I,Swati,ZA
5,Q103OTHER,6,somali,som,I,Somali,KE
5,Q103OTHER,8,standard english,eng,I,English,LR
5,Q103OTHER,6,swahili,swh,I,Swahili (individual language),KE
5,Q103OTHER,6,swahili,swa,M,Swahili (macrolanguage),KE
5,Q103OTHER,26,tikar,tik,I,Tikar,CM
5,Q103OTHER,16,tsonga,tso,I,Tsonga,ZA
5,Q103OTHER,19,tumbuka,tum,I,Tumbuka,ZM
5,Q103OTHER,6,turkana,tuv,I,Turkana,KE
5,Q103OTHER,12,xitsua,tsc,I,Tswa,MZ
5,Q103OTHER,26,yambassa,yav,I,Yangben,CM
5,Q116OTHER,27,aboure,abu,I,Abure,CI
5,Q116OTHER,27,ahizi,ahp,I,Aproumu Aizi,CI
5,Q116OTHER,24,anyanga,ayg,I,Ginyanga,TG
5,Q116OTHER,14,babur,bwr,I,Bura-Pabir,NG
5,Q116OTHER,14,bachama,bcy,I,Bacama,NG
5,Q116OTHER,14,bajju,kaj,I,Jju,NG
5,Q116OTHER,26,bandjoun,bbj,I,Ghomálá',CM
5,Q116OTHER,26,banen,tvu,I,Tunen,CM
5,Q116OTHER,14,bassa,bzw,I,Basa (Nigeria),NG
5,Q116OTHER,26,bassa,bas,I,Basa (Cameroon),CM
5,Q116OTHER,26,bayangam,mis,S,Uncoded languages,CM
5,Q116OTHER,1,boo,mis,S,Uncoded languages,BJ
5,Q116OTHER,14,burah,bwr,I,Bura-Pabir,NG
5,Q116OTHER,12,chitewe,twx,I,Tewe,MZ
5,Q116OTHER,5,dagaare,dga,I,Southern Dagaare,GH
5,Q116OTHER,27,dahomey,mis,S,Uncoded languages,CI
5,Q116OTHER,26,eton,eto,I,Eton (Cameroon),CM
5,Q116OTHER,5,frafra,gur,I,Farefare,GH
5,Q116OTHER,3,fulse,kfz,I,Koromfé,BF
5,Q116OTHER,14,izere,izr,I,Izere,NG
5,Q116OTHER,14,jaba,ldb,I,Dũya,NG
5,Q116OTHER,14,jarawa,jgk,I,Gwak,NG
5,Q116OTHER,14,jarawa,jjr,I,Bankal,NG
5,Q116OTHER,14,jukun,jbu,I,Jukun Takum,NG
5,Q116OTHER,17,kijita,jit,I,Jita,TZ
5,Q116OTHER,17,kiluri,kya,I,Kwaya,TZ
5,Q116OTHER,14,koro,ahs,I,Ashe,NG
5,Q116OTHER,14,koro,bqv,I,Koro Wachi,NG
5,Q116OTHER,14,koro,ldb,I,Dũya,NG
5,Q116OTHER,14,koro,yes,I,Nyankpa,NG
5,Q116OTHER,26,kotoko,mis,S,Uncoded languages,CM
5,Q116OTHER,26,mafa,maf,I,Mafa,CM
5,Q116OTHER,26,mbo,mbo,I,Mbo (Cameroon),CM
5,Q116OTHER,14,ngas,anc,I,Ngas,NG
5,Q116OTHER,26,ntoumou,fan,I,Fang (Equatorial Guinea),CM
5,Q116OTHER,26,nyem nyem,mis,S,Uncoded languages,CM
5,Q116OTHER,19,nyika,nkv,I,Nyika (Malawi and Zambia),ZM
5,Q116OTHER,14,ron,cla,I,Ron,NG
5,Q116OTHER,18,rufumbiira,kin,I,Kinyarwanda,UG
5,Q116OTHER,14,sayawa,say,I,Saya,NG
5,Q116OTHER,33,tamazight,zgh,I,Standard Moroccan Tamazight,MA
5,Q116OTHER,27,toura,neb,I,Toura (Côte d'Ivoire),CI
5,Q116OTHER,5,waale,wlx,I,Wali (Ghana),GH
5,Q116OTHER,27,wobe,wob,I,Wè Northern,CI
5,Q116OTHER,12,xitswa,tsc,I,Tswa,MZ
5,Q116OTHER,14,zuru,dri,I,C'Lela,NG
5,Q2OTHER,27,abidji,abi,I,Abidji,CI
5,Q2OTHER,26,abo,abb,I,Bankon,CM
5,Q2OTHER,27,aboure,abu,I,Abure,CI
5,Q2OTHER,24,adele,ade,I,Adele,TG
5,Q2OTHER,24,adja,ajg,I,Aja (Benin),TG
5,Q2OTHER,14,afizere,izr,I,Izere,NG
5,Q2OTHER,14,agbor,ikk,I,Ika,NG
5,Q2OTHER,26,aghem,agq,I,Aghem,CM
5,Q2OTHER,27,ahizi,ahp,I,Aproumu Aizi,CI
5,Q2OTHER,14,ahoada,mis,S,Uncoded languages,NG
5,Q2OTHER,5,akan,aka,M,Akan,GH
5,Q2OTHER,5,akan,fat,I,Fanti,GH
5,Q2OTHER,5,akan,twi,I,Twi,GH
5,Q2OTHER,24,akebou,keu,I,Akebu,TG
5,Q2OTHER,24,aklobo,mis,S,Uncoded languages,TG
5,Q2OTHER,14,akumazi,ikk,I,Ika,NG
5,Q2OTHER,5,akyode,acd,I,Gikyode,GH
5,Q2OTHER,14,alago,ala,I,Alago,NG
5,Q2OTHER,26,ambo-batibo,mis,S,Uncoded languages,CM
5,Q2OTHER,14,amoh,amo,I,Amo,NG
5,Q2OTHER,24,anago,mis,S,Uncoded languages,TG
5,Q2OTHER,14,anang,anw,I,Anaang,NG
5,Q2OTHER,14,andoni,ann,I,Obolo,NG
5,Q2OTHER,14,angas,anc,I,Ngas,NG
5,Q2OTHER,27,appolo,nzi,I,Nzima,CI
5,Q2OTHER,26,arabe choa,shu,I,Chadian Arabic,CM
5,Q2OTHER,26,arabe choa,ara,M,Arabic,CM
5,Q2OTHER,6,arabic,acx,I,Omani Arabic,KE
5,Q2OTHER,6,arabic,ara,M,Arabic,KE
5,Q2OTHER,18,aringa,luc,I,Aringa,UG
5,Q2OTHER,24,ashanti,mis,S,Uncoded languages,TG
5,Q2OTHER,6,asian south,guj,I,Gujarati,KE
5,Q2OTHER,14,attakar,kcg,I,Tyap,NG
5,Q2OTHER,14,auchi,ets,I,Yekhee,NG
5,Q2OTHER,14,awa,mis,S,Uncoded languages,NG
5,Q2OTHER,5,awutu,afu,I,Awutu,GH
5,Q2OTHER,5,ayigbe,mis,S,Uncoded languages,GH
5,Q2OTHER,26,babanjou,mis,S,Uncoded languages,CM
5,Q2OTHER,26,babis,mis,S,Uncoded languages,CM
5,Q2OTHER,26,baboute,vut,I,Vute,CM
5,Q2OTHER,26,babungo,bav,I,Vengo,CM
5,Q2OTHER,26,bachiotia,mis,S,Uncoded languages,CM
5,Q2OTHER,26,badenkop,mis,S,Uncoded languages,CM
5,Q2OTHER,15,badiaranke,mis,S,Uncoded languages,SN
5,Q2OTHER,26,badjoue,ozm,I,Koonzime,CM
5,Q2OTHER,26,bafanji,bfj,I,Bafanji,CM
5,Q2OTHER,26,bafmen,bfm,I,Mmen,CM
5,Q2OTHER,26,bafo,bwt,I,Bafaw-Balong,CM
5,Q2OTHER,26,bafounda,mis,S,Uncoded languages,CM
5,Q2OTHER,26,bafoussam,mis,S,Uncoded languages,CM
5,Q2OTHER,24,bago,bqg,I,Bago-Kusuntu,TG
5,Q2OTHER,14,bagwom,mis,S,Uncoded languages,NG
5,Q2OTHER,26,baham,bbj,I,Ghomálá',CM
5,Q2OTHER,14,bajju,kaj,I,Jju,NG
5,Q2OTHER,14,bakamuka,mis,S,Uncoded languages,NG
5,Q2OTHER,26,bakassi,mis,S,Uncoded languages,CM
5,Q2OTHER,18,bakenyi,lke,I,Kenyi,UG
5,Q2OTHER,26,bakoko,bkh,I,Bakoko,CM
5,Q2OTHER,26,bakossi,bss,I,Akoose,CM
5,Q2OTHER,27,bakwe,bjw,I,Bakwé,CI
5,Q2OTHER,26,bakweri,bri,I,Mokpwe,CM
5,Q2OTHER,15,balante,bjt,I,Balanta-Ganja,SN
5,Q2OTHER,26,balati,mis,S,Uncoded languages,CM
5,Q2OTHER,26,bali,mhk,I,Mungaka,CM
5,Q2OTHER,26,balikumbat,bqt,I,Bamukumbit,CM
5,Q2OTHER,26,balinyongya,mhk,I,Mungaka,CM
5,Q2OTHER,26,balong,bwt,I,Bafaw-Balong,CM
5,Q2OTHER,26,bambili,baw,I,Bambili-Bambui,CM
5,Q2OTHER,26,bamedjou,mis,S,Uncoded languages,CM
5,Q2OTHER,26,bameka,bbj,I,Ghomálá',CM
5,Q2OTHER,26,bamenda,mfd,I,Mendankwe-Nkwen,CM
5,Q2OTHER,26,bamendjou,mis,S,Uncoded languages,CM
5,Q2OTHER,26,bamessing,ndb,I,Kenswei Nsei,CM
5,Q2OTHER,26,bamumbu,mnf,I,Mundani,CM
5,Q2OTHER,5,banda,nfr,I,Nafaanra,GH
5,Q2OTHER,26,banen,tvu,I,Tunen,CM
5,Q2OTHER,26,bangou,mis,S,Uncoded languages,CM
5,Q2OTHER,26,banossi,mis,S,Uncoded languages,CM
5,Q2OTHER,26,bapa,bbw,I,Baba,CM
5,Q2OTHER,26,bapoukou,mis,S,Uncoded languages,CM
5,Q2OTHER,13,barakwena,xuu,I,Kxoe,NA
5,Q2OTHER,14,basange,mis,S,Uncoded languages,NG
5,Q2OTHER,5,basare,bud,I,Ntcham,GH
5,Q2OTHER,28,bassano foula,fuf,I,Pular,GN
5,Q2OTHER,28,bassano foula,ful,M,Fulah,GN
5,Q2OTHER,24,bassar,bud,I,Ntcham,TG
5,Q2OTHER,26,batcham,nnh,I,Ngiemboon,CM
5,Q2OTHER,26,batibo,mgo,I,Meta',CM
5,Q2OTHER,26,batie,bbj,I,Ghomálá',CM
5,Q2OTHER,26,batomow,mis,S,Uncoded languages,CM
5,Q2OTHER,5,battor,mis,S,Uncoded languages,GH
5,Q2OTHER,26,baya,gya,I,Northwest Gbaya,CM
5,Q2OTHER,26,baya,gba,M,Gbaya (Central African Republic),CM
5,Q2OTHER,15,bayotte,bda,I,Bayot,SN
5,Q2OTHER,28,beka,mis,S,Uncoded languages,GN
5,Q2OTHER,26,bengwi,mis,S,Uncoded languages,CM
5,Q2OTHER,26,bikom,bkm,I,Kom (Cameroon),CM
5,Q2OTHER,14,bille,bil,I,Bile,NG
5,Q2OTHER,5,bimoba,bim,I,Bimoba,GH
5,Q2OTHER,5,birifori,biv,I,Southern Birifor,GH
5,Q2OTHER,14,birom,bom,I,Berom,NG
5,Q2OTHER,12,bitonga,toh,I,Gitonga,MZ
5,Q2OTHER,26,bobis,mis,S,Uncoded languages,CM
5,Q2OTHER,3,bobo,bbo,I,Northern Bobo Madaré,BF
5,Q2OTHER,3,bobo,bwq,I,Southern Bobo Madaré,BF
5,Q2OTHER,20,bocha,mxc,I,Manyika,ZW
5,Q2OTHER,14,bogobara,mis,S,Uncoded languages,NG
5,Q2OTHER,14,bole,bol,I,Bole,NG
5,Q2OTHER,3,bolon,bof,I,Bolon,BF
5,Q2OTHER,26,bongken,bvg,I,Bonkeng,CM
5,Q2OTHER,1,boo,mis,S,Uncoded languages,BJ
5,Q2OTHER,6,borana,gax,I,Borana-Arsi-Guji Oromo,KE
5,Q2OTHER,6,borana,orm,M,Oromo,KE
5,Q2OTHER,14,borom,mis,S,Uncoded languages,NG
5,Q2OTHER,26,bouda,mis,S,Uncoded languages,CM
5,Q2OTHER,5,buile,mis,S,Uncoded languages,GH
5,Q2OTHER,5,builsa,bwu,I,Buli (Ghana),GH
5,Q2OTHER,20,buja,sna,I,Shona,ZW
5,Q2OTHER,16,bulgarian,bul,I,Bulgarian,ZA
5,Q2OTHER,26,bum,mdd,I,Mbum,CM
5,Q2OTHER,14,bura,bwr,I,Bura-Pabir,NG
5,Q2OTHER,5,busanga,mis,S,Uncoded languages,GH
5,Q2OTHER,5,chamba,bud,I,Ntcham,GH
5,Q2OTHER,14,chamba,ccg,I,Samba Daka,NG
5,Q2OTHER,14,chawai,cch,I,Atsam,NG
5,Q2OTHER,12,chechewa,nya,I,Nyanja,MZ
5,Q2OTHER,20,chewa,nya,I,Nyanja,ZW
5,Q2OTHER,12,chibarue,bwg,I,Barwe,MZ
5,Q2OTHER,12,chibaure,bwg,I,Barwe,MZ
5,Q2OTHER,14,chibok,ckl,I,Cibak,NG
5,Q2OTHER,12,chiburue,bwg,I,Barwe,MZ
5,Q2OTHER,12,chichewa,nya,I,Nyanja,MZ
5,Q2OTHER,12,chigorongozi,mis,S,Uncoded languages,MZ
5,Q2OTHER,20,chikunda,kdn,I,Kunda,ZW
5,Q2OTHER,10,chilambya,lai,I,Lambya,MW
5,Q2OTHER,12,chimanica,mxc,I,Manyika,MZ
5,Q2OTHER,12,chimarenge,mis,S,Uncoded languages,MZ
5,Q2OTHER,5,chimullu,ncu,I,Chumburung,GH
5,Q2OTHER,10,chinamwanga,mwn,I,Nyamwanga,MW
5,Q2OTHER,10,chindali,ndh,I,Ndali,MW
5,Q2OTHER,10,chindalii,ndh,I,Ndali,MW
5,Q2OTHER,10,chindebele,nde,I,North Ndebele,MW
5,Q2OTHER,16,chinese,cmn,I,Mandarin Chinese,ZA
5,Q2OTHER,16,chinese,zho,M,Chinese,ZA
5,Q2OTHER,12,chingoni,ngo,I,Ngoni,MZ
5,Q2OTHER,12,chingozi,mis,S,Uncoded languages,MZ
5,Q2OTHER,12,chinhungue,mxc,I,Manyika,MZ
5,Q2OTHER,10,chinyakyusa,nyy,I,Nyakyusa-Ngonde,MW
5,Q2OTHER,10,chinyika,nkv,I,Nyika (Malawi and Zambia),MW
5,Q2OTHER,12,chitawala,twl,I,Tawara,MZ
5,Q2OTHER,20,chitawala,mis,S,Uncoded languages,ZW
5,Q2OTHER,12,chitewe,twx,I,Tewe,MZ
5,Q2OTHER,12,chitswa,tsc,I,Tswa,MZ
5,Q2OTHER,5,chokosi,cko,I,Anufo,GH
5,Q2OTHER,12,cicoti,eko,I,Koti,MZ
5,Q2OTHER,26,daba,dbq,I,Daba,CM
5,Q2OTHER,3,dafing,rkm,I,Marka,BF
5,Q2OTHER,11,dafing,rkm,I,Marka,ML
5,Q2OTHER,5,dagaare,dga,I,Southern Dagaare,GH
5,Q2OTHER,5,dagomba,dag,I,Dagbani,GH
5,Q2OTHER,14,delta,mis,S,Uncoded languages,NG
5,Q2OTHER,15,diahanke,mlq,I,Western Maninkakan,SN
5,Q2OTHER,15,diahanke,man,M,Mandingo,SN
5,Q2OTHER,5,dibebi,mis,S,Uncoded languages,GH
5,Q2OTHER,26,dii,dur,I,Dii,CM
5,Q2OTHER,6,dinka,mis,S,Uncoded languages,KE
5,Q2OTHER,26,djanch,mis,S,Uncoded languages,CM
5,Q2OTHER,26,djem,njy,I,Njyem,CM
5,Q2OTHER,27,djimini,dyi,I,Djimini Senoufo,CI
5,Q2OTHER,3,dogosse,dos,I,Dogosé,BF
5,Q2OTHER,20,dombe,dov,I,Dombe,ZW
5,Q2OTHER,26,dschang,ybb,I,Yemba,CM
5,Q2OTHER,26,du,mis,S,Uncoded languages,CM
5,Q2OTHER,27,ebrie,ebr,I,Ebrié,CI
5,Q2OTHER,14,egbueuakaa,mis,S,Uncoded languages,NG
5,Q2OTHER,14,eggon,ego,I,Eggon,NG
5,Q2OTHER,27,ehotile,mis,S,Uncoded languages,CI
5,Q2OTHER,14,ejagam,etu,I,Ejagham,NG
5,Q2OTHER,26,ejagam,etu,I,Ejagham,CM
5,Q2OTHER,14,ekpeye,ekp,I,Ekpeye,NG
5,Q2OTHER,14,eleme,elm,I,Eleme,NG
5,Q2OTHER,12,english,eng,I,English,MZ
5,Q2OTHER,26,esimbi,ags,I,Esimbi,CM
5,Q2OTHER,26,esu,mis,S,Uncoded languages,CM
5,Q2OTHER,14,etsako,ets,I,Yekhee,NG
5,Q2OTHER,14,ezi delta igbo,ibo,I,Igbo,NG
5,Q2OTHER,14,fakun,mis,S,Uncoded languages,NG
5,Q2OTHER,5,fante,fat,I,Fanti,GH
5,Q2OTHER,5,fante,aka,M,Akan,GH
5,Q2OTHER,1,fodo,mis,S,Uncoded languages,BJ
5,Q2OTHER,24,fon,fon,I,Fon,TG
5,Q2OTHER,26,foulbe,mis,S,Uncoded languages,CM
5,Q2OTHER,5,frafra,gur,I,Farefare,GH
5,Q2OTHER,5,fulani,ffm,I,Maasina Fulfulde,GH
5,Q2OTHER,5,fulani,ful,M,Fulah,GH
5,Q2OTHER,27,gagou,ggu,I,Gagu,CI
5,Q2OTHER,20,garwe,ndc,I,Ndau,ZW
5,Q2OTHER,14,gbagyi,gbr,I,Gbagyi,NG
5,Q2OTHER,14,gbile,mis,S,Uncoded languages,NG
5,Q2OTHER,14,geum,mis,S,Uncoded languages,NG
5,Q2OTHER,26,ghomala,mis,S,Uncoded languages,CM
5,Q2OTHER,6,giriama,nyf,I,Giryama,KE
5,Q2OTHER,26,gizzigare,mis,S,Uncoded languages,CM
5,Q2OTHER,27,gniaboua,mis,S,Uncoded languages,CI
5,Q2OTHER,19,goba,sna,I,Shona,ZM
5,Q2OTHER,5,gonja,gjn,I,Gonja,GH
5,Q2OTHER,26,gouife,mis,S,Uncoded languages,CM
5,Q2OTHER,24,gourma,gux,I,Gourmanchéma,TG
5,Q2OTHER,5,gruni,gur,I,Farefare,GH
5,Q2OTHER,5,guan,gwx,I,Gua,GH
5,Q2OTHER,6,gujrathi,guj,I,Gujarati,KE
5,Q2OTHER,5,guruma,bim,I,Bimoba,GH
5,Q2OTHER,14,gwandara,gwn,I,Gwandara,NG
5,Q2OTHER,14,gwari,gbr,I,Gbagyi,NG
5,Q2OTHER,14,gwoza,mis,S,Uncoded languages,NG
5,Q2OTHER,6,"half taita, half zai",dav,I,Taita,KE
5,Q2OTHER,5,hanga,hag,I,Hanga,GH
5,Q2OTHER,3,haoussa,hau,I,Hausa,BF
5,Q2OTHER,24,haoussa,hau,I,Hausa,TG
5,Q2OTHER,33,hassaniya,mey,I,Hassaniyya,MA
5,Q2OTHER,14,higgi,hig,I,Kamwe,NG
5,Q2OTHER,26,hina,hna,I,Mina (Cameroon),CM
5,Q2OTHER,20,hindi,hin,I,Hindi,ZW
5,Q2OTHER,6,hindu,hin,I,Hindi,KE
5,Q2OTHER,1,houssa,hau,I,Hausa,BJ
5,Q2OTHER,20,hwesa,sna,I,Shona,ZW
5,Q2OTHER,14,ibaji,igl,I,Igala,NG
5,Q2OTHER,14,ibie,mis,S,Uncoded languages,NG
5,Q2OTHER,14,ijaw,ijs,I,Southeast Ijo,NG
5,Q2OTHER,14,ika,ikk,I,Ika,NG
5,Q2OTHER,14,ikom,iko,I,Olulumo-Ikom,NG
5,Q2OTHER,14,ikpena,mis,S,Uncoded languages,NG
5,Q2OTHER,6,indian,guj,I,Gujarati,KE
5,Q2OTHER,14,irigwe,iri,I,Irigwe,NG
5,Q2OTHER,30,isizulu,zul,I,Zulu,SZ
5,Q2OTHER,14,isoko,iso,I,Isoko,NG
5,Q2OTHER,14,izere,izr,I,Izere,NG
5,Q2OTHER,14,jaba,ldb,I,Dũya,NG
5,Q2OTHER,14,jaja,mis,S,Uncoded languages,NG
5,Q2OTHER,14,jarawa,jgk,I,Gwak,NG
5,Q2OTHER,14,jarawa,jjr,I,Bankal,NG
5,Q2OTHER,14,jenjo,jen,I,Dza,NG
5,Q2OTHER,20,jindwi,mxc,I,Manyika,ZW
5,Q2OTHER,26,jukum,mis,S,Uncoded languages,CM
5,Q2OTHER,14,jukun,jbu,I,Jukun Takum,NG
5,Q2OTHER,14,kadara,kad,I,Adara,NG
5,Q2OTHER,14,kagoma,kdm,I,Kagoma,NG
5,Q2OTHER,28,kakabhe,kke,I,Kakabe,GN
5,Q2OTHER,18,kakwa,keo,I,Kakwa,UG
5,Q2OTHER,14,kalabari,ijn,I,Kalabari,NG
5,Q2OTHER,24,kamboli,mis,S,Uncoded languages,TG
5,Q2OTHER,26,kambu,mis,S,Uncoded languages,CM
5,Q2OTHER,26,kangyang,mis,S,Uncoded languages,CM
5,Q2OTHER,5,kanjaga,bwu,I,Buli (Ghana),GH
5,Q2OTHER,26,kanouri,knc,I,Central Kanuri,CM
5,Q2OTHER,26,kanouri,kau,M,Kanuri,CM
5,Q2OTHER,14,karekare,kai,I,Karekare,NG
5,Q2OTHER,14,karmo,mis,S,Uncoded languages,NG
5,Q2OTHER,5,kasena,xsm,I,Kasem,GH
5,Q2OTHER,14,kataf,kcg,I,Tyap,NG
5,Q2OTHER,13,kavango,mis,S,Uncoded languages,NA
5,Q2OTHER,18,kebu,ndp,I,Ndo,UG
5,Q2OTHER,18,kebu.,nbp,I,Nnam,UG
5,Q2OTHER,6,kenyan,swh,I,Swahili (individual language),KE
5,Q2OTHER,6,kenyan,swa,M,Swahili (macrolanguage),KE
5,Q2OTHER,26,keyka,mis,S,Uncoded languages,CM
5,Q2OTHER,14,khana,ogo,I,Khana,NG
5,Q2OTHER,17,kiarusha,mis,S,Uncoded languages,TZ
5,Q2OTHER,17,kibena,bez,I,Bena (Tanzania),TZ
5,Q2OTHER,17,kibende,bdp,I,Bende,TZ
5,Q2OTHER,17,kibondei,bou,I,Bondei,TZ
5,Q2OTHER,17,kibunga,mis,S,Uncoded languages,TZ
5,Q2OTHER,17,kibungu,wun,I,Bungu,TZ
5,Q2OTHER,17,kidoe,doe,I,Doe,TZ
5,Q2OTHER,17,kifipa,fip,I,Fipa,TZ
5,Q2OTHER,17,kigindo,mis,S,Uncoded languages,TZ
5,Q2OTHER,17,kigunya,mis,S,Uncoded languages,TZ
5,Q2OTHER,17,kigweno,gwe,I,Gweno,TZ
5,Q2OTHER,17,kiha,haq,I,Ha,TZ
5,Q2OTHER,17,kihangaza,han,I,Hangaza,TZ
5,Q2OTHER,17,kiikizu,ikz,I,Ikizu,TZ
5,Q2OTHER,17,kiiraq,irk,I,Iraqw,TZ
5,Q2OTHER,17,kijaluo,mis,S,Uncoded languages,TZ
5,Q2OTHER,17,kijita,jit,I,Jita,TZ
5,Q2OTHER,17,kikagulu,kki,I,Kagulu,TZ
5,Q2OTHER,17,kikaguru,mis,S,Uncoded languages,TZ
5,Q2OTHER,17,kikahe,hka,I,Kahe,TZ
5,Q2OTHER,17,kikala,mis,S,Uncoded languages,TZ
5,Q2OTHER,17,kikamba,mis,S,Uncoded languages,TZ
5,Q2OTHER,17,kikerewe,ked,I,Kerewe,TZ
5,Q2OTHER,17,kikiizu,mis,S,Uncoded languages,TZ
5,Q2OTHER,17,kikinga,zga,I,Kinga,TZ
5,Q2OTHER,17,kikisi,kiz,I,Kisi,TZ
5,Q2OTHER,17,kikutu,kdc,I,Kutu,TZ
5,Q2OTHER,17,kikwaya,kya,I,Kwaya,TZ
5,Q2OTHER,17,kilongo,mis,S,Uncoded languages,TZ
5,Q2OTHER,17,kiluri,kya,I,Kwaya,TZ
5,Q2OTHER,17,kimakua,mgh,I,Makhuwa-Meetto,TZ
5,Q2OTHER,17,kimakunduchi,mis,S,Uncoded languages,TZ
5,Q2OTHER,17,kimalila,mgq,I,Malila,TZ
5,Q2OTHER,17,kimambwe,mgr,I,Mambwe-Lungu,TZ
5,Q2OTHER,17,kimanda,mgs,I,Manda (Tanzania),TZ
5,Q2OTHER,17,kimatengo,mgv,I,Matengo,TZ
5,Q2OTHER,17,kimatumbi,mgw,I,Matumbi,TZ
5,Q2OTHER,17,kimbulu,mis,S,Uncoded languages,TZ
5,Q2OTHER,17,kimdale,mis,S,Uncoded languages,TZ
5,Q2OTHER,12,kimuani,wmw,I,Mwani,MZ
5,Q2OTHER,17,kimuwanji,wbi,I,Vwanji,TZ
5,Q2OTHER,17,kimwera,mwe,I,Mwera (Chimwera),TZ
5,Q2OTHER,17,kinata,ntk,I,Ikoma-Nata-Isenye,TZ
5,Q2OTHER,17,kindali,ndh,I,Ndali,TZ
5,Q2OTHER,17,kindamba,ndj,I,Ndamba,TZ
5,Q2OTHER,17,kindendeule,dne,I,Ndendeule,TZ
5,Q2OTHER,17,kindengereko,ndg,I,Ndengereko,TZ
5,Q2OTHER,17,kingindo,nnq,I,Ngindo,TZ
5,Q2OTHER,17,kinguu,ngp,I,Ngulu,TZ
5,Q2OTHER,17,kinyagatwa,mis,S,Uncoded languages,TZ
5,Q2OTHER,17,kinyambo,now,I,Nyambo,TZ
5,Q2OTHER,18,kinyamulenge,kin,I,Kinyarwanda,UG
5,Q2OTHER,17,kinyamwanga,mwn,I,Nyamwanga,TZ
5,Q2OTHER,17,kinyamwezi,nym,I,Nyamwezi,TZ
5,Q2OTHER,17,kinyasa,mpa,I,Mpoto,TZ
5,Q2OTHER,17,kinyaturu,rim,I,Nyaturu,TZ
5,Q2OTHER,17,kinyiha,nkt,I,Nyika (Tanzania),TZ
5,Q2OTHER,17,kipagebi,mis,S,Uncoded languages,TZ
5,Q2OTHER,17,kipangwa,pbr,I,Pangwa,TZ
5,Q2OTHER,17,kipemba,swh,I,Swahili (individual language),TZ
5,Q2OTHER,17,kipemba,swa,M,Swahili (macrolanguage),TZ
5,Q2OTHER,17,kipimbwe,piw,I,Pimbwe,TZ
5,Q2OTHER,17,kipogoro,poy,I,Pogolo,TZ
5,Q2OTHER,17,kirangi,lag,I,Langi,TZ
5,Q2OTHER,6,kirinyaga,kik,I,Kikuyu,KE
5,Q2OTHER,17,kirufiji,rui,I,Rufiji,TZ
5,Q2OTHER,17,kisafwa,sbk,I,Safwa,TZ
5,Q2OTHER,17,kisagala,sbm,I,Sagala,TZ
5,Q2OTHER,17,kisambaa,ksb,I,Shambala,TZ
5,Q2OTHER,17,kisandawe,sad,I,Sandawe,TZ
5,Q2OTHER,17,kisangu,sbp,I,Sangu (Tanzania),TZ
5,Q2OTHER,17,kisanzu,isn,I,Isanzu,TZ
5,Q2OTHER,17,kishirazi,mis,S,Uncoded languages,TZ
5,Q2OTHER,17,kisimbiti,ssc,I,Suba-Simbiti,TZ
5,Q2OTHER,17,kisubi,suj,I,Shubi,TZ
5,Q2OTHER,17,kisumbwa,suw,I,Sumbwa,TZ
5,Q2OTHER,17,kisunva,mis,S,Uncoded languages,TZ
5,Q2OTHER,17,kiswahili,swh,I,Swahili (individual language),TZ
5,Q2OTHER,17,kiswahili,swa,M,Swahili (macrolanguage),TZ
5,Q2OTHER,17,kitatuu,mis,S,Uncoded languages,TZ
5,Q2OTHER,17,kitongwe,tny,I,Tongwe,TZ
5,Q2OTHER,17,kitumbatu,mis,S,Uncoded languages,TZ
5,Q2OTHER,17,kituwan,mis,S,Uncoded languages,TZ
5,Q2OTHER,17,kiuwanji,wbi,I,Vwanji,TZ
5,Q2OTHER,17,kiyao,yao,I,Yao,TZ
5,Q2OTHER,17,kiyusi,guz,I,Gusii,TZ
5,Q2OTHER,17,kizanaki,zak,I,Zanaki,TZ
5,Q2OTHER,17,kizaramo,zaj,I,Zaramo,TZ
5,Q2OTHER,17,kizigua,ziw,I,Zigula,TZ
5,Q2OTHER,17,kizinza,zin,I,Zinza,TZ
5,Q2OTHER,26,klum,mis,S,Uncoded languages,CM
5,Q2OTHER,26,kom,nfu,I,Mfumte,CM
5,Q2OTHER,24,komkomba,mis,S,Uncoded languages,TG
5,Q2OTHER,5,konkomba,xon,I,Konkomba,GH
5,Q2OTHER,24,konkomba,xon,I,Konkomba,TG
5,Q2OTHER,14,koro,ahs,I,Ashe,NG
5,Q2OTHER,14,koro,bqv,I,Koro Wachi,NG
5,Q2OTHER,14,koro,ldb,I,Dũya,NG
5,Q2OTHER,14,koro,yes,I,Nyankpa,NG
5,Q2OTHER,27,koro,kfo,I,Koro (Côte d'Ivoire),CI
5,Q2OTHER,26,koshin,kid,I,Koshin,CM
5,Q2OTHER,1,kotocoli,mis,S,Uncoded languages,BJ
5,Q2OTHER,5,kotokoli,kdh,I,Tem,GH
5,Q2OTHER,24,kouloumi,mis,S,Uncoded languages,TG
5,Q2OTHER,1,koura,mis,S,Uncoded languages,BJ
5,Q2OTHER,28,kouranko,knk,I,Kuranko,GN
5,Q2OTHER,24,koussountou,bqg,I,Bago-Kusuntu,TG
5,Q2OTHER,27,kouya,kyf,I,Kouya,CI
5,Q2OTHER,27,kouzie,nwb,I,Nyabwa,CI
5,Q2OTHER,27,koyaka,kga,I,Koyaga,CI
5,Q2OTHER,24,kpessi,kef,I,Kpessi,TG
5,Q2OTHER,5,krachi,kye,I,Krache,GH
5,Q2OTHER,5,krobo,ada,I,Adangme,GH
5,Q2OTHER,18,kumam,kdi,I,Kumam,UG
5,Q2OTHER,14,kurama,krh,I,Kurama,NG
5,Q2OTHER,6,kuria,kuj,I,Kuria,KE
5,Q2OTHER,5,kusaasi,kus,I,Kusaal,GH
5,Q2OTHER,5,kusal,kus,I,Kusaal,GH
5,Q2OTHER,14,kuteb,kub,I,Kutep,NG
5,Q2OTHER,26,laka,mis,S,Uncoded languages,CM
5,Q2OTHER,5,lakpakaw,xon,I,Konkomba,GH
5,Q2OTHER,28,landouma,ldm,I,Landoma,GN
5,Q2OTHER,26,lebialem,mis,S,Uncoded languages,CM
5,Q2OTHER,26,lele,mis,S,Uncoded languages,CM
5,Q2OTHER,26,lemande,lem,I,Nomaande,CM
5,Q2OTHER,18,lendu,led,I,Lendu,UG
5,Q2OTHER,26,limbum,lmp,I,Limbum,CM
5,Q2OTHER,26,limbun,mis,S,Uncoded languages,CM
5,Q2OTHER,12,lolo,llb,I,Lolo,MZ
5,Q2OTHER,12,lomwe,ngl,I,Lomwe,MZ
5,Q2OTHER,19,luba,mis,S,Uncoded languages,ZM
5,Q2OTHER,18,lubukusu,bxk,I,Bukusu,UG
5,Q2OTHER,18,lubukusu,luy,M,Luyia,UG
5,Q2OTHER,19,luchazi,lch,I,Luchazi,ZM
5,Q2OTHER,18,lufubila,kin,I,Kinyarwanda,UG
5,Q2OTHER,18,lufumbira,kin,I,Kinyarwanda,UG
5,Q2OTHER,18,lugisu,myx,I,Masaaba,UG
5,Q2OTHER,18,lugwere,gwr,I,Gwere,UG
5,Q2OTHER,18,lukene,lke,I,Kenyi,UG
5,Q2OTHER,18,lukuku,bfa,I,Bari,UG
5,Q2OTHER,18,lulamogi,xog,I,Soga,UG
5,Q2OTHER,18,lululi,ruc,I,Ruuli,UG
5,Q2OTHER,12,lumwe,ngl,I,Lomwe,MZ
5,Q2OTHER,18,lunyarwanda,kin,I,Kinyarwanda,UG
5,Q2OTHER,18,luruli,ruc,I,Ruuli,UG
5,Q2OTHER,18,lurundi,run,I,Rundi,UG
5,Q2OTHER,18,lusudan,apd,I,Sudanese Arabic,UG
5,Q2OTHER,18,lusudan,ara,M,Arabic,UG
5,Q2OTHER,18,lusudani,apd,I,Sudanese Arabic,UG
5,Q2OTHER,18,lusudani,ara,M,Arabic,UG
5,Q2OTHER,26,lutu,mis,S,Uncoded languages,CM
5,Q2OTHER,18,lwamba,rwm,I,Amba (Uganda),UG
5,Q2OTHER,14,mada,mda,I,Mada (Nigeria),NG
5,Q2OTHER,26,mada,mxu,I,Mada (Cameroon),CM
5,Q2OTHER,14,magu,mcj,I,Mvanip,NG
5,Q2OTHER,27,mahouka,mxx,I,Mahou,CI
5,Q2OTHER,26,malimba,mzd,I,Malimba,CM
5,Q2OTHER,26,mambila,mis,S,Uncoded languages,CM
5,Q2OTHER,5,mampruli,maw,I,Mampruli,GH
5,Q2OTHER,26,mandara,mfi,I,Wandala,CM
5,Q2OTHER,26,mandoua,mis,S,Uncoded languages,CM
5,Q2OTHER,26,manguissa,mis,S,Uncoded languages,CM
5,Q2OTHER,12,manhawa,mis,S,Uncoded languages,MZ
5,Q2OTHER,15,mankagne,mis,S,Uncoded languages,SN
5,Q2OTHER,6,marachi,lri,I,Marachi,KE
5,Q2OTHER,6,marachi,luy,M,Luyia,KE
5,Q2OTHER,14,margi,mrt,I,Marghi Central,NG
5,Q2OTHER,20,maungwe,mis,S,Uncoded languages,ZW
5,Q2OTHER,15,maure,mis,S,Uncoded languages,SN
5,Q2OTHER,27,mbatto,gwa,I,Mbato,CI
5,Q2OTHER,6,mbeere,ebu,I,Embu,KE
5,Q2OTHER,26,mbem,yam,I,Yamba,CM
5,Q2OTHER,26,mbo,mbo,I,Mbo (Cameroon),CM
5,Q2OTHER,26,mbu,nbv,I,Ngamambo,CM
5,Q2OTHER,14,mbube,mis,S,Uncoded languages,NG
5,Q2OTHER,26,medoumba,mis,S,Uncoded languages,CM
5,Q2OTHER,26,mefewele,mis,S,Uncoded languages,CM
5,Q2OTHER,26,mekaf,mff,I,Naki,CM
5,Q2OTHER,26,mendakwe,mis,S,Uncoded languages,CM
5,Q2OTHER,26,menka,pny,I,Pinyin,CM
5,Q2OTHER,26,mesagie,mis,S,Uncoded languages,CM
5,Q2OTHER,26,meta,mis,S,Uncoded languages,CM
5,Q2OTHER,26,metu,mis,S,Uncoded languages,CM
5,Q2OTHER,26,mezime,mgg,I,Mpumpong,CM
5,Q2OTHER,14,michika,mis,S,Uncoded languages,NG
5,Q2OTHER,14,migili,mgi,I,Lijili,NG
5,Q2OTHER,28,miguiforet,mfg,I,Mogofin,GN
5,Q2OTHER,3,mionga,mis,S,Uncoded languages,BF
5,Q2OTHER,14,miyawa,mkf,I,Miya,NG
5,Q2OTHER,20,mlemba,mis,S,Uncoded languages,ZW
5,Q2OTHER,26,mockbie,mis,S,Uncoded languages,CM
5,Q2OTHER,2,mokaa,mis,S,Uncoded languages,BW
5,Q2OTHER,5,moshie,mos,I,Mossi,GH
5,Q2OTHER,24,mossi,mos,I,Mossi,TG
5,Q2OTHER,26,mousgoum,mug,I,Musgu,CM
5,Q2OTHER,26,mozeuille,mis,S,Uncoded languages,CM
5,Q2OTHER,26,mpongo,mis,S,Uncoded languages,CM
5,Q2OTHER,18,mubwisi,tlj,I,Talinga-Bwisi,UG
5,Q2OTHER,18,mufumbira,kin,I,Kinyarwanda,UG
5,Q2OTHER,18,mugishu,myx,I,Masaaba,UG
5,Q2OTHER,18,mugungu,rub,I,Gungu,UG
5,Q2OTHER,20,muhera,mis,S,Uncoded languages,ZW
5,Q2OTHER,19,mulambya,mis,S,Uncoded languages,ZM
5,Q2OTHER,18,mululi,ruc,I,Ruuli,UG
5,Q2OTHER,18,mulundi,run,I,Rundi,UG
5,Q2OTHER,19,mumba,mis,S,Uncoded languages,ZM
5,Q2OTHER,14,mumuye,mzm,I,Mumuye,NG
5,Q2OTHER,26,mundani,mnf,I,Mundani,CM
5,Q2OTHER,18,munyarwanda,kin,I,Kinyarwanda,UG
5,Q2OTHER,14,mupun,sur,I,Mwaghavul,NG
5,Q2OTHER,18,muruli,ruc,I,Ruuli,UG
5,Q2OTHER,18,musungora,koo,I,Konzo,UG
5,Q2OTHER,18,mutagwenda,nyo,I,Nyoro,UG
5,Q2OTHER,18,mutgwenda,nyo,I,Nyoro,UG
5,Q2OTHER,14,mwaghavul,sur,I,Mwaghavul,NG
5,Q2OTHER,18,mwamba,rwm,I,Amba (Uganda),UG
5,Q2OTHER,5,nabdam,gur,I,Farefare,GH
5,Q2OTHER,28,nallou,naj,I,Nalu,GN
5,Q2OTHER,20,nambiya,mis,S,Uncoded languages,ZW
5,Q2OTHER,5,nanumba,dag,I,Dagbani,GH
5,Q2OTHER,1,natimba,ntm,I,Nateni,BJ
5,Q2OTHER,5,nawurt,mis,S,Uncoded languages,GH
5,Q2OTHER,14,nbula,ndr,I,Ndoola,NG
5,Q2OTHER,26,nchang,mis,S,Uncoded languages,CM
5,Q2OTHER,19,ndebele,nde,I,North Ndebele,ZM
5,Q2OTHER,26,ndi,www,I,Wawa,CM
5,Q2OTHER,27,neyo,wec,I,Wè Western,CI
5,Q2OTHER,24,ngam-gam,gng,I,Ngangam,TG
5,Q2OTHER,14,ngas,anc,I,Ngas,NG
5,Q2OTHER,26,ngemba,nge,I,Ngemba,CM
5,Q2OTHER,26,ngi,ngj,I,Ngie,CM
5,Q2OTHER,26,ngoa,mis,S,Uncoded languages,CM
5,Q2OTHER,26,ngobale,mis,S,Uncoded languages,CM
5,Q2OTHER,26,ngwoh,mis,S,Uncoded languages,CM
5,Q2OTHER,12,nharinga,mis,S,Uncoded languages,MZ
5,Q2OTHER,14,nigili,mgi,I,Lijili,NG
5,Q2OTHER,14,ningawa,mis,S,Uncoded languages,NG
5,Q2OTHER,26,nkambe,mis,S,Uncoded languages,CM
5,Q2OTHER,5,nkura,nku,I,Bouna Kulango,GH
5,Q2OTHER,26,nlimbom,mis,S,Uncoded languages,CM
5,Q2OTHER,14,north ivie,mis,S,Uncoded languages,NG
5,Q2OTHER,12,nsenga,nse,I,Nsenga,MZ
5,Q2OTHER,26,ntem,mis,S,Uncoded languages,CM
5,Q2OTHER,26,ntenako,mis,S,Uncoded languages,CM
5,Q2OTHER,6,nubian,kcn,I,Nubi,KE
5,Q2OTHER,5,nusu,mis,S,Uncoded languages,GH
5,Q2OTHER,26,nweh,nwe,I,Ngwe,CM
5,Q2OTHER,20,nyanja,nya,I,Nyanja,ZW
5,Q2OTHER,20,nyasaland,nya,I,Nyanja,ZW
5,Q2OTHER,13,nyemba,mis,S,Uncoded languages,NA
5,Q2OTHER,26,nyokon,nvo,I,Nyokon,CM
5,Q2OTHER,5,nzema,nzi,I,Nzima,GH
5,Q2OTHER,26,nzime,ozm,I,Koonzime,CM
5,Q2OTHER,26,obang,etu,I,Ejagham,CM
5,Q2OTHER,14,ogoja,mis,S,Uncoded languages,NG
5,Q2OTHER,14,ohafia,ibo,I,Igbo,NG
5,Q2OTHER,18,okebu,ndp,I,Ndo,UG
5,Q2OTHER,14,okpe,okx,I,Okpe (Northwestern Edo),NG
5,Q2OTHER,14,okpella,atg,I,Ivbie North-Okpela-Arhe,NG
5,Q2OTHER,14,okrika,okr,I,Kirike,NG
5,Q2OTHER,26,oku,oku,I,Oku,CM
5,Q2OTHER,14,olukumi,mis,S,Uncoded languages,NG
5,Q2OTHER,18,ombach,mis,S,Uncoded languages,UG
5,Q2OTHER,14,once,mis,S,Uncoded languages,NG
5,Q2OTHER,26,oroko,bdu,I,Oroko,CM
5,Q2OTHER,6,oroma,orc,I,Orma,KE
5,Q2OTHER,6,oroma,orm,M,Oromo,KE
5,Q2OTHER,26,oshe,mis,S,Uncoded languages,CM
5,Q2OTHER,14,ososo,oso,I,Ososo,NG
5,Q2OTHER,2,parakarungu,mis,S,Uncoded languages,BW
5,Q2OTHER,15,pepele,mis,S,Uncoded languages,SN
5,Q2OTHER,24,peul,fue,I,Borgu Fulfulde,TG
5,Q2OTHER,24,peul,ful,M,Fulah,TG
5,Q2OTHER,26,peulh,fub,I,Adamawa Fulfulde,CM
5,Q2OTHER,26,peulh,ful,M,Fulah,CM
5,Q2OTHER,6,pokomo,pkb,I,Pokomo,KE
5,Q2OTHER,15,portugais,por,I,Portuguese,SN
5,Q2OTHER,6,punjabi,pan,I,Panjabi,KE
5,Q2OTHER,6,rendile,rel,I,Rendille,KE
5,Q2OTHER,14,ron,cla,I,Ron,NG
5,Q2OTHER,12,ronga,rng,I,Ronga,MZ
5,Q2OTHER,18,rufumbira,kin,I,Kinyarwanda,UG
5,Q2OTHER,18,rugisu,kin,I,Kinyarwanda,UG
5,Q2OTHER,18,rululi,ruc,I,Ruuli,UG
5,Q2OTHER,13,rumbundu,umb,I,Umbundu,NA
5,Q2OTHER,18,runyarwanda,kin,I,Kinyarwanda,UG
5,Q2OTHER,18,rutagwenda,nyo,I,Nyoro,UG
5,Q2OTHER,6,sabaot,spy,I,Sabaot,KE
5,Q2OTHER,6,sabaot,kln,M,Kalenjin,KE
5,Q2OTHER,3,sambla,sos,I,Seeku,BF
5,Q2OTHER,27,samoro,mis,S,Uncoded languages,CI
5,Q2OTHER,26,sanaga,bag,I,Tuki,CM
5,Q2OTHER,8,sapo,krn,I,Sapo,LR
5,Q2OTHER,14,sayawa,say,I,Saya,NG
5,Q2OTHER,2,sebanderu,mis,S,Uncoded languages,BW
5,Q2OTHER,2,sebolongwe,mis,S,Uncoded languages,BW
5,Q2OTHER,2,sekolong,mis,S,Uncoded languages,BW
5,Q2OTHER,2,senanjwa,mis,S,Uncoded languages,BW
5,Q2OTHER,2,sepedi,nso,I,Pedi,BW
5,Q2OTHER,2,setebele,nde,I,North Ndebele,BW
5,Q2OTHER,2,setlharo,mis,S,Uncoded languages,BW
5,Q2OTHER,2,setswapong,two,I,Tswapong,BW
5,Q2OTHER,20,shangani,tso,I,Tsonga,ZW
5,Q2OTHER,20,shangwe,sna,I,Shona,ZW
5,Q2OTHER,6,shelshel,mis,S,Uncoded languages,KE
5,Q2OTHER,19,shila,tap,I,Taabwa,ZM
5,Q2OTHER,13,shona,mis,S,Uncoded languages,NA
5,Q2OTHER,19,shona,sna,I,Shona,ZM
5,Q2OTHER,14,shuwa,shu,I,Chadian Arabic,NG
5,Q2OTHER,14,shuwa,ara,M,Arabic,NG
5,Q2OTHER,19,siluchazi,mis,S,Uncoded languages,ZM
5,Q2OTHER,24,sirka,mis,S,Uncoded languages,TG
5,Q2OTHER,5,sissala,sil,I,Tumulung Sisaala,GH
5,Q2OTHER,5,sissala,ssl,I,Western Sisaala,GH
5,Q2OTHER,30,sizulu,zul,I,Zulu,SZ
5,Q2OTHER,27,sokouya,mis,S,Uncoded languages,CI
5,Q2OTHER,24,sola,soy,I,Miyobe,TG
5,Q2OTHER,20,sotho,nso,I,Pedi,ZW
5,Q2OTHER,15,soussou,sus,I,Susu,SN
5,Q2OTHER,6,suba,sxb,I,Suba,KE
5,Q2OTHER,18,swahili,swh,I,Swahili (individual language),UG
5,Q2OTHER,18,swahili,swa,M,Swahili (macrolanguage),UG
5,Q2OTHER,19,swaka,leb,I,Lala-Bisa,ZM
5,Q2OTHER,12,tacuane,tke,I,Takwane,MZ
5,Q2OTHER,27,tagbana,tgw,I,Tagwana Senoufo,CI
5,Q2OTHER,5,talensi,gur,I,Farefare,GH
5,Q2OTHER,31,tamazight,kab,I,Kabyle,DZ
5,Q2OTHER,33,tamazight,zgh,I,Standard Moroccan Tamazight,MA
5,Q2OTHER,14,tangale,tan,I,Tangale,NG
5,Q2OTHER,18,tanzanian,swh,I,Swahili (individual language),UG
5,Q2OTHER,18,tanzanian,swa,M,Swahili (macrolanguage),UG
5,Q2OTHER,14,tarok,yer,I,Tarok,NG
5,Q2OTHER,24,tchamba,aks,I,Akaselem,TG
5,Q2OTHER,26,tchang,ybb,I,Yemba,CM
5,Q2OTHER,24,tchokossi,cko,I,Anufo,TG
5,Q2OTHER,24,temberma,mis,S,Uncoded languages,TG
5,Q2OTHER,27,teninka,mis,S,Uncoded languages,CI
5,Q2OTHER,6,teso,teo,I,Teso,KE
5,Q2OTHER,6,tharaka,thk,I,Tharaka,KE
5,Q2OTHER,5,timbru,mis,S,Uncoded languages,GH
5,Q2OTHER,14,tiv,tiv,I,Tiv,NG
5,Q2OTHER,28,toma mania,tod,I,Toma,GN
5,Q2OTHER,5,tombolon,tpm,I,Tampulma,GH
5,Q2OTHER,15,tourka,mis,S,Uncoded languages,SN
5,Q2OTHER,3,toussian,mis,S,Uncoded languages,BF
5,Q2OTHER,16,tsonga,tso,I,Tsonga,ZA
5,Q2OTHER,30,tsonga,tso,I,Tsonga,SZ
5,Q2OTHER,20,tumbuka,tum,I,Tumbuka,ZW
5,Q2OTHER,3,turka,tuz,I,Turka,BF
5,Q2OTHER,14,ukwale,ukw,I,Ukwuani-Aboh-Ndoni,NG
5,Q2OTHER,14,ukwani,ukw,I,Ukwuani-Aboh-Ndoni,NG
5,Q2OTHER,14,uwa,mis,S,Uncoded languages,NG
5,Q2OTHER,14,uzeba,mis,S,Uncoded languages,NG
5,Q2OTHER,20,vhitori,mis,S,Uncoded languages,ZW
5,Q2OTHER,5,waala,wlx,I,Wali (Ghana),GH
5,Q2OTHER,1,waama,wwa,I,Waama,BJ
5,Q2OTHER,26,wandala,mfi,I,Wandala,CM
5,Q2OTHER,5,wangra,mis,S,Uncoded languages,GH
5,Q2OTHER,6,wardei,som,I,Somali,KE
5,Q2OTHER,24,watchi,mis,S,Uncoded languages,TG
5,Q2OTHER,26,weh,weh,I,Weh,CM
5,Q2OTHER,26,widikum,mis,S,Uncoded languages,CM
5,Q2OTHER,26,wimbum,lmp,I,Limbum,CM
5,Q2OTHER,27,wobe,wob,I,Wè Northern,CI
5,Q2OTHER,28,wome,mis,S,Uncoded languages,GN
5,Q2OTHER,26,womela,mis,S,Uncoded languages,CM
5,Q2OTHER,7,xhosa,xho,I,Xhosa,LS
5,Q2OTHER,20,xhosa,xho,I,Xhosa,ZW
5,Q2OTHER,14,yakhor,yaz,I,Lokaa,NG
5,Q2OTHER,3,yanan,mis,S,Uncoded languages,BF
5,Q2OTHER,12,yao,yao,I,Yao,MZ
5,Q2OTHER,19,yawa,mis,S,Uncoded languages,ZM
5,Q2OTHER,24,yorouba,yor,I,Yoruba,TG
5,Q2OTHER,14,youm,mis,S,Uncoded languages,NG
5,Q2OTHER,14,zamji,mis,S,Uncoded languages,NG
5,Q2OTHER,5,zamrama,mis,S,Uncoded languages,GH
5,Q2OTHER,13,zembas,dhm,I,Zemba,NA
5,Q2OTHER,1,zerma,mis,S,Uncoded languages,BJ
5,Q2OTHER,27,zinninga,mis,S,Uncoded languages,CI
5,Q2OTHER,26,zoulgo,gnd,I,Zulgo-Gemzek,CM
5,Q2OTHER,30,zulu,zul,I,Zulu,SZ
5,Q2OTHER,14,zuro,dri,I,C'Lela,NG
6,Q103OTHER,11,ada,ada,I,Adangme,GH
6,Q103OTHER,25,angolan,aoa,I,Angolar,ST
6,Q103OTHER,25,angulares,aoa,I,Angolar,ST
6,Q103OTHER,11,anyinam,any,I,Anyin,GH
6,Q103OTHER,11,bimoba,bim,I,Bimoba,GH
6,Q103OTHER,35,bisa,leb,I,Lala-Bisa,ZM
6,Q103OTHER,21,bitonga,toh,I,Gitonga,MZ
6,Q103OTHER,11,buzanga,mis,S,Uncoded languages,GH
6,Q103OTHER,25,caboverdiano,kea,I,Kabuverdianu,ST
6,Q103OTHER,21,chape,cce,I,Chopi,MZ
6,Q103OTHER,17,chilambya,lai,I,Lambya,MW
6,Q103OTHER,17,chinkhonde,nyy,I,Nyakyusa-Ngonde,MW
6,Q103OTHER,21,chiteye,twx,I,Tewe,MZ
6,Q103OTHER,17,chitonga,tog,I,Tonga (Nyasa),MW
6,Q103OTHER,17,chiyao,yao,I,Yao,MW
6,Q103OTHER,21,chona,mis,S,Uncoded languages,MZ
6,Q103OTHER,21,chongo,mis,S,Uncoded languages,MZ
6,Q103OTHER,21,chope,cce,I,Chopi,MZ
6,Q103OTHER,21,chuabo,chw,I,Chuwabu,MZ
6,Q103OTHER,11,dagaari,dga,I,Southern Dagaare,GH
6,Q103OTHER,11,dagaarti,dga,I,Southern Dagaare,GH
6,Q103OTHER,32,ewe,ewe,I,Ewe,TG
6,Q103OTHER,25,foro,cri,I,Sãotomense,ST
6,Q103OTHER,25,forro,cri,I,Sãotomense,ST
6,Q103OTHER,11,frafra,gur,I,Farefare,GH
6,Q103OTHER,12,francais,fra,I,French,GN
6,Q103OTHER,26,francais,fra,I,French,SN
6,Q103OTHER,32,francais,fra,I,French,TG
6,Q103OTHER,12,francaise,fra,I,French,GN
6,Q103OTHER,11,french,fra,I,French,GH
6,Q103OTHER,33,french,fra,I,French,TN
6,Q103OTHER,27,fullah,fuf,I,Pular,SL
6,Q103OTHER,27,fullah,ful,M,Fulah,SL
6,Q103OTHER,6,ghemba,mis,S,Uncoded languages,CM
6,Q103OTHER,11,gonja,gjn,I,Gonja,GH
6,Q103OTHER,11,gruni,gur,I,Farefare,GH
6,Q103OTHER,11,grushi,xsm,I,Kasem,GH
6,Q103OTHER,12,guerze,gkp,I,Guinea Kpelle,GN
6,Q103OTHER,12,guerze,kpe,M,Kpelle,GN
6,Q103OTHER,11,kaakye,kye,I,Krache,GH
6,Q103OTHER,32,kabye,kbp,I,Kabiyè,TG
6,Q103OTHER,34,kakwa,keo,I,Kakwa,UG
6,Q103OTHER,34,kapsabinyi,kpz,I,Kupsabiny,UG
6,Q103OTHER,28,khoisan,naq,I,Khoekhoe,ZA
6,Q103OTHER,27,kissi,kqs,I,Northern Kissi,SL
6,Q103OTHER,27,kissi,kss,I,Southern Kisi,SL
6,Q103OTHER,11,kokomba,xon,I,Konkomba,GH
6,Q103OTHER,6,kotoko,mis,S,Uncoded languages,CM
6,Q103OTHER,11,kotokoli,kdh,I,Tem,GH
6,Q103OTHER,11,krobo,ada,I,Adangme,GH
6,Q103OTHER,34,kupsabinyi,kpz,I,Kupsabiny,UG
6,Q103OTHER,11,kusaasi,kus,I,Kusaal,GH
6,Q103OTHER,11,kusal,kus,I,Kusaal,GH
6,Q103OTHER,21,ligote,mis,S,Uncoded languages,MZ
6,Q103OTHER,21,logote,mis,S,Uncoded languages,MZ
6,Q103OTHER,34,lugwere,gwr,I,Gwere,UG
6,Q103OTHER,34,lunyole,nuj,I,Nyole,UG
6,Q103OTHER,34,lusamia,lsm,I,Saamia,UG
6,Q103OTHER,34,lusamia,luy,M,Luyia,UG
6,Q103OTHER,6,mada,mxu,I,Mada (Cameroon),CM
6,Q103OTHER,6,mafa,maf,I,Mafa,CM
6,Q103OTHER,11,mamprusi,maw,I,Mampruli,GH
6,Q103OTHER,21,manhungue,mxc,I,Manyika,MZ
6,Q103OTHER,12,mano,mev,I,Mano,GN
6,Q103OTHER,21,maronga,rng,I,Ronga,MZ
6,Q103OTHER,26,maure,mis,S,Uncoded languages,SN
6,Q103OTHER,11,mo,mzw,I,Deg,GH
6,Q103OTHER,11,mossi,mos,I,Mossi,GH
6,Q103OTHER,6,moundang,mua,I,Mundang,CM
6,Q103OTHER,11,nankan,gur,I,Farefare,GH
6,Q103OTHER,28,ndebela,nbl,I,South Ndebele,ZA
6,Q103OTHER,34,ngakarimajong,kdj,I,Karamojong,UG
6,Q103OTHER,21,nhungue,nyu,I,Nyungwe,MZ
6,Q103OTHER,35,nsenga,nse,I,Nsenga,ZM
6,Q103OTHER,21,outra lingua,und,S,Undetermined,MZ
6,Q103OTHER,21,outras linguas,und,S,Undetermined,MZ
6,Q103OTHER,28,pedi,nso,I,Pedi,ZA
6,Q103OTHER,21,poetugues e xitsua,por,I,Portuguese,MZ
6,Q103OTHER,21,portugues e outras linguas,por,I,Portuguese,MZ
6,Q103OTHER,21,portugues e sena,por,I,Portuguese,MZ
6,Q103OTHER,34,rufumbira,kin,I,Kinyarwanda,UG
6,Q103OTHER,34,runyarwanda,kin,I,Kinyarwanda,UG
6,Q103OTHER,21,sena,seh,I,Sena,MZ
6,Q103OTHER,21,sena e portugues,seh,I,Sena,MZ
6,Q103OTHER,26,serere,srr,I,Serer,SN
6,Q103OTHER,28,setsonga,tso,I,Tsonga,ZA
6,Q103OTHER,11,sissala,sil,I,Tumulung Sisaala,GH
6,Q103OTHER,11,sissala,ssl,I,Western Sisaala,GH
6,Q103OTHER,28,siswati,ssw,I,Swati,ZA
6,Q103OTHER,28,siswazi,ssw,I,Swati,ZA
6,Q103OTHER,12,soussou,sus,I,Susu,GN
6,Q103OTHER,28,swazi,ssw,I,Swati,ZA
6,Q103OTHER,20,tamazight,zgh,I,Standard Moroccan Tamazight,MA
6,Q103OTHER,21,tewe,twx,I,Tewe,MZ
6,Q103OTHER,12,toma,tod,I,Toma,GN
6,Q103OTHER,28,tsonga,tso,I,Tsonga,ZA
6,Q103OTHER,35,tumbka,mis,S,Uncoded languages,ZM
6,Q103OTHER,11,waala,wlx,I,Wali (Ghana),GH
6,Q103OTHER,11,wangara,mis,S,Uncoded languages,GH
6,Q103OTHER,11,wulisa,mis,S,Uncoded languages,GH
6,Q103OTHER,28,xitsonga,tso,I,Tsonga,ZA
6,Q103OTHER,21,xitsua,tsc,I,Tswa,MZ
6,Q103OTHER,21,xitswa,tsc,I,Tswa,MZ
6,Q103OTHER,28,xtsonga,tso,I,Tsonga,ZA
6,Q103OTHER,30,zulu,zul,I,Zulu,SZ
6,Q116OTHER,6,bafoussam,mis,S,Uncoded languages,CM
6,Q116OTHER,12,baga,bcg,I,Baga Pokur,GN
6,Q116OTHER,24,bajju,kaj,I,Jju,NG
6,Q116OTHER,6,bamileke,mis,S,Uncoded languages,CM
6,Q116OTHER,24,bandawa,bcv,I,Shoo-Minda-Nye,NG
6,Q116OTHER,6,bassa,bas,I,Basa (Cameroon),CM
6,Q116OTHER,6,bene,bum,I,Bulu (Cameroon),CM
6,Q116OTHER,24,birom,bom,I,Berom,NG
6,Q116OTHER,24,bujja,mis,S,Uncoded languages,NG
6,Q116OTHER,24,buju,mis,S,Uncoded languages,NG
6,Q116OTHER,24,chamawa,mis,S,Uncoded languages,NG
6,Q116OTHER,11,dagaare,dga,I,Southern Dagaare,GH
6,Q116OTHER,24,eggon,ego,I,Eggon,NG
6,Q116OTHER,6,eton,eto,I,Eton (Cameroon),CM
6,Q116OTHER,24,etsako,ets,I,Yekhee,NG
6,Q116OTHER,24,gbagyi,gbr,I,Gbagyi,NG
6,Q116OTHER,11,gonja,gjn,I,Gonja,GH
6,Q116OTHER,24,gwandara,gwn,I,Gwandara,NG
6,Q116OTHER,24,igede,ige,I,Igede,NG
6,Q116OTHER,24,kabba,bgu,I,Mbongno,NG
6,Q116OTHER,24,kabba/bunu,bgu,I,Mbongno,NG
6,Q116OTHER,24,kalabari,ijn,I,Kalabari,NG
6,Q116OTHER,11,kasem,xsm,I,Kasem,GH
6,Q116OTHER,31,kiha,haq,I,Ha,TZ
6,Q116OTHER,31,kijaluo,mis,S,Uncoded languages,TZ
6,Q116OTHER,31,kikinga,zga,I,Kinga,TZ
6,Q116OTHER,31,kindamba,ndj,I,Ndamba,TZ
6,Q116OTHER,31,kiruri,kya,I,Kwaya,TZ
6,Q116OTHER,31,kizanaki,zak,I,Zanaki,TZ
6,Q116OTHER,11,kokomba,xon,I,Konkomba,GH
6,Q116OTHER,11,kotokoli,kdh,I,Tem,GH
6,Q116OTHER,24,lemoro,ldj,I,Lemoro,NG
6,Q116OTHER,11,likpakpaln,xon,I,Konkomba,GH
6,Q116OTHER,24,maghai,mew,I,Maaka,NG
6,Q116OTHER,26,maure,mis,S,Uncoded languages,SN
6,Q116OTHER,6,mbo,mbo,I,Mbo (Cameroon),CM
6,Q116OTHER,11,moshie,mos,I,Mossi,GH
6,Q116OTHER,6,moundang,mua,I,Mundang,CM
6,Q116OTHER,24,mumuye,mzm,I,Mumuye,NG
6,Q116OTHER,24,mwaghavul,sur,I,Mwaghavul,NG
6,Q116OTHER,21,myungue,nyu,I,Nyungwe,MZ
6,Q116OTHER,24,ndola,ndr,I,Ndoola,NG
6,Q116OTHER,24,ngas,anc,I,Ngas,NG
6,Q116OTHER,21,ngungue,nyu,I,Nyungwe,MZ
6,Q116OTHER,21,nhumgue,nyu,I,Nyungwe,MZ
6,Q116OTHER,21,nhungue,nyu,I,Nyungwe,MZ
6,Q116OTHER,21,nhunguem,nyu,I,Nyungwe,MZ
6,Q116OTHER,21,nhungwe,nyu,I,Nyungwe,MZ
6,Q116OTHER,21,njumgue,nyu,I,Nyungwe,MZ
6,Q116OTHER,21,njungue,nyu,I,Nyungwe,MZ
6,Q116OTHER,21,njungur,nyu,I,Nyungwe,MZ
6,Q116OTHER,6,nkwen,mfd,I,Mendankwe-Nkwen,CM
6,Q116OTHER,6,ntoumou,fan,I,Fang (Equatorial Guinea),CM
6,Q116OTHER,21,nyhungue,nyu,I,Nyungwe,MZ
6,Q116OTHER,21,nyugue,nyu,I,Nyungwe,MZ
6,Q116OTHER,21,nyunge,nyu,I,Nyungwe,MZ
6,Q116OTHER,21,nyungue,nyu,I,Nyungwe,MZ
6,Q116OTHER,21,nyungwe,nyu,I,Nyungwe,MZ
6,Q116OTHER,21,nyyngue,nyu,I,Nyungwe,MZ
6,Q116OTHER,28,portuguese,por,I,Portuguese,ZA
6,Q116OTHER,11,sisaala,sil,I,Tumulung Sisaala,GH
6,Q116OTHER,11,sisaala,ssl,I,Western Sisaala,GH
6,Q116OTHER,8,tour,mis,S,Uncoded languages,CI
6,Q116OTHER,24,tukun,nza,I,Tigon Mbembe,NG
6,Q116OTHER,24,umone,umm,I,Umon,NG
6,Q116OTHER,11,waala,wlx,I,Wali (Ghana),GH
6,Q116OTHER,24,zuru,dri,I,C'Lela,NG
6,Q2OTHER,8,abidji,abi,I,Abidji,CI
6,Q2OTHER,8,aboure,abu,I,Abure,CI
6,Q2OTHER,11,ada,ada,I,Adangme,GH
6,Q2OTHER,24,adara,kad,I,Adara,NG
6,Q2OTHER,11,adele,ade,I,Adele,GH
6,Q2OTHER,32,adele,ade,I,Adele,TG
6,Q2OTHER,6,aghem,agq,I,Aghem,CM
6,Q2OTHER,11,ahanta,aha,I,Ahanta,GH
6,Q2OTHER,13,ajuran,mis,S,Uncoded languages,KE
6,Q2OTHER,6,akosse,mis,S,Uncoded languages,CM
6,Q2OTHER,11,akyode,acd,I,Gikyode,GH
6,Q2OTHER,24,alago,ala,I,Alago,NG
6,Q2OTHER,8,alladjan,mis,S,Uncoded languages,CI
6,Q2OTHER,6,ambele,ael,I,Ambele,CM
6,Q2OTHER,8,andoh,mis,S,Uncoded languages,CI
6,Q2OTHER,24,angas,anc,I,Ngas,NG
6,Q2OTHER,24,ankwe,ank,I,Goemai,NG
6,Q2OTHER,13,arab,arb,I,Standard Arabic,KE
6,Q2OTHER,13,arab,ara,M,Arabic,KE
6,Q2OTHER,6,arabe,shu,I,Chadian Arabic,CM
6,Q2OTHER,6,arabe,ara,M,Arabic,CM
6,Q2OTHER,6,ashem,mis,S,Uncoded languages,CM
6,Q2OTHER,6,asumb0,ass,I,Ipulo,CM
6,Q2OTHER,11,atweti,mis,S,Uncoded languages,GH
6,Q2OTHER,24,aukwe,afo,I,Eloyi,NG
6,Q2OTHER,11,avatime,avn,I,Avatime,GH
6,Q2OTHER,6,babadjon,mis,S,Uncoded languages,CM
6,Q2OTHER,6,babadjou,nla,I,Ngombale,CM
6,Q2OTHER,24,bachama,bcy,I,Bacama,NG
6,Q2OTHER,8,bacoue,mis,S,Uncoded languages,CI
6,Q2OTHER,6,badjoue,ozm,I,Koonzime,CM
6,Q2OTHER,24,badukke,mis,S,Uncoded languages,NG
6,Q2OTHER,6,bafang,fmp,I,Fe'fe',CM
6,Q2OTHER,6,bafaw,bwt,I,Bafaw-Balong,CM
6,Q2OTHER,6,bafoussam,mis,S,Uncoded languages,CM
6,Q2OTHER,12,baga,bcg,I,Baga Pokur,GN
6,Q2OTHER,34,bagungu,rub,I,Gungu,UG
6,Q2OTHER,6,baham,bbj,I,Ghomálá',CM
6,Q2OTHER,6,baham/bafoussam,bbj,I,Ghomálá',CM
6,Q2OTHER,24,bajju,kaj,I,Jju,NG
6,Q2OTHER,24,baju,kaj,I,Jju,NG
6,Q2OTHER,13,bajuni,swh,I,Swahili (individual language),KE
6,Q2OTHER,13,bajuni,swa,M,Swahili (macrolanguage),KE
6,Q2OTHER,6,bakosi,bss,I,Akoose,CM
6,Q2OTHER,8,bakoue,mis,S,Uncoded languages,CI
6,Q2OTHER,6,bakwari,bri,I,Mokpwe,CM
6,Q2OTHER,6,bakwere,bri,I,Mokpwe,CM
6,Q2OTHER,26,balante,bjt,I,Balanta-Ganja,SN
6,Q2OTHER,6,balcweri,mis,S,Uncoded languages,CM
6,Q2OTHER,6,baleng,mis,S,Uncoded languages,CM
6,Q2OTHER,6,balengou,mis,S,Uncoded languages,CM
6,Q2OTHER,6,bali,mhk,I,Mungaka,CM
6,Q2OTHER,6,bali nyonga,mhk,I,Mungaka,CM
6,Q2OTHER,6,baloundo,mis,S,Uncoded languages,CM
6,Q2OTHER,34,baluya,lsm,I,Saamia,UG
6,Q2OTHER,34,baluya,luy,M,Luyia,UG
6,Q2OTHER,6,bambele,bag,I,Tuki,CM
6,Q2OTHER,6,bamendjing,xmg,I,Mengaka,CM
6,Q2OTHER,6,bamougoum,mis,S,Uncoded languages,CM
6,Q2OTHER,24,banbawa,bcv,I,Shoo-Minda-Nye,NG
6,Q2OTHER,24,bandawa,bcv,I,Shoo-Minda-Nye,NG
6,Q2OTHER,6,banen,tvu,I,Tunen,CM
6,Q2OTHER,6,banvele,mis,S,Uncoded languages,CM
6,Q2OTHER,24,baruba,mis,S,Uncoded languages,NG
6,Q2OTHER,11,basari,bud,I,Ntcham,GH
6,Q2OTHER,6,basso,nla,I,Ngombale,CM
6,Q2OTHER,6,bata,bta,I,Bata,CM
6,Q2OTHER,6,batanga,bnm,I,Batanga,CM
6,Q2OTHER,6,batcham,nnh,I,Ngiemboon,CM
6,Q2OTHER,6,batibo,mgo,I,Meta',CM
6,Q2OTHER,11,batoe,ewe,I,Ewe,GH
6,Q2OTHER,6,baton,mis,S,Uncoded languages,CM
6,Q2OTHER,24,bawaje,mis,S,Uncoded languages,NG
6,Q2OTHER,6,bawan,mis,S,Uncoded languages,CM
6,Q2OTHER,24,bawara,mis,S,Uncoded languages,NG
6,Q2OTHER,6,befang,bby,I,Befang,CM
6,Q2OTHER,6,belibonachi,mis,S,Uncoded languages,CM
6,Q2OTHER,4,bella,mis,S,Uncoded languages,BF
6,Q2OTHER,6,benegun,mis,S,Uncoded languages,CM
6,Q2OTHER,6,besa,mis,S,Uncoded languages,CM
6,Q2OTHER,16,betsimisaraka,bmm,I,Northern Betsimisaraka Malagasy,MG
6,Q2OTHER,16,betsimisaraka,bzc,I,Southern Betsimisaraka Malagasy,MG
6,Q2OTHER,16,betsimisaraka,mlg,M,Malagasy,MG
6,Q2OTHER,26,beudick,mis,S,Uncoded languages,SN
6,Q2OTHER,19,bhojpuri,bho,I,Bhojpuri,MU
6,Q2OTHER,2,biali,beh,I,Biali,BJ
6,Q2OTHER,11,bimoba,bim,I,Bimoba,GH
6,Q2OTHER,11,bissa,bib,I,Bissa,GH
6,Q2OTHER,36,bocha,mxc,I,Manyika,ZW
6,Q2OTHER,24,boiyana,mis,S,Uncoded languages,NG
6,Q2OTHER,11,bono,abr,I,Abron,GH
6,Q2OTHER,13,borana,gax,I,Borana-Arsi-Guji Oromo,KE
6,Q2OTHER,13,borana,orm,M,Oromo,KE
6,Q2OTHER,29,brown amer language,mis,S,Uncoded languages,SD
6,Q2OTHER,6,bu,boe,I,Mundabli,CM
6,Q2OTHER,6,buda,mis,S,Uncoded languages,CM
6,Q2OTHER,11,buem,lef,I,Lelemi,GH
6,Q2OTHER,36,buja,sna,I,Shona,ZW
6,Q2OTHER,11,buli,bwu,I,Buli (Ghana),GH
6,Q2OTHER,6,bulu,bum,I,Bulu (Cameroon),CM
6,Q2OTHER,24,bussa,mis,S,Uncoded languages,NG
6,Q2OTHER,21,chaewa,nya,I,Nyanja,MZ
6,Q2OTHER,11,chamba,bud,I,Ntcham,GH
6,Q2OTHER,21,chena,seh,I,Sena,MZ
6,Q2OTHER,21,cheua,nya,I,Nyanja,MZ
6,Q2OTHER,21,chewa,nya,I,Nyanja,MZ
6,Q2OTHER,36,chewa,nya,I,Nyanja,ZW
6,Q2OTHER,21,chewe,nya,I,Nyanja,MZ
6,Q2OTHER,35,chikunda,kdn,I,Kunda,ZM
6,Q2OTHER,17,chimambwe,mgr,I,Mambwe-Lungu,MW
6,Q2OTHER,17,chindali,ndh,I,Ndali,MW
6,Q2OTHER,17,chinyakyusa,nyy,I,Nyakyusa-Ngonde,MW
6,Q2OTHER,17,chinyanja,nya,I,Nyanja,MW
6,Q2OTHER,17,chinyika,nkv,I,Nyika (Malawi and Zambia),MW
6,Q2OTHER,17,chinyungwe,nyu,I,Nyungwe,MW
6,Q2OTHER,17,chiswahili,swh,I,Swahili (individual language),MW
6,Q2OTHER,17,chiswahili,swa,M,Swahili (macrolanguage),MW
6,Q2OTHER,21,chitcheiwa,nya,I,Nyanja,MZ
6,Q2OTHER,21,chitewe,twx,I,Tewe,MZ
6,Q2OTHER,21,chiteye,twx,I,Tewe,MZ
6,Q2OTHER,36,chitoko,mis,S,Uncoded languages,ZW
6,Q2OTHER,21,chitsua,tsc,I,Tswa,MZ
6,Q2OTHER,21,chitxua,tsc,I,Tswa,MZ
6,Q2OTHER,17,chiwandya,swk,I,Malawi Sena,MW
6,Q2OTHER,35,chiyamba,mis,S,Uncoded languages,ZM
6,Q2OTHER,21,chona,mis,S,Uncoded languages,MZ
6,Q2OTHER,6,choua,mis,S,Uncoded languages,CM
6,Q2OTHER,11,chukusi,cko,I,Anufo,GH
6,Q2OTHER,21,chutcua,mis,S,Uncoded languages,MZ
6,Q2OTHER,26,creol,pov,I,Upper Guinea Crioulo,SN
6,Q2OTHER,6,daba,dbq,I,Daba,CM
6,Q2OTHER,24,dador,mis,S,Uncoded languages,NG
6,Q2OTHER,4,dafing,rkm,I,Marka,BF
6,Q2OTHER,11,dagaari,dga,I,Southern Dagaare,GH
6,Q2OTHER,24,dakarkari,dri,I,C'Lela,NG
6,Q2OTHER,6,dbo,mis,S,Uncoded languages,CM
6,Q2OTHER,11,deg-(moo),mis,S,Uncoded languages,GH
6,Q2OTHER,24,degema,deg,I,Degema,NG
6,Q2OTHER,18,diaka,mis,S,Uncoded languages,ML
6,Q2OTHER,12,diakanke,jad,I,Jahanka,GN
6,Q2OTHER,26,diakhanke,mlq,I,Western Maninkakan,SN
6,Q2OTHER,26,diakhanke,man,M,Mandingo,SN
6,Q2OTHER,13,digo,dig,I,Digo,KE
6,Q2OTHER,4,djerma,dje,I,Zarma,BF
6,Q2OTHER,8,djimini,dyi,I,Djimini Senoufo,CI
6,Q2OTHER,4,docces,mis,S,Uncoded languages,BF
6,Q2OTHER,4,dogon,djm,I,Jamsay Dogon,BF
6,Q2OTHER,4,dogon,dtm,I,Tomo Kan Dogon,BF
6,Q2OTHER,4,dogons,djm,I,Jamsay Dogon,BF
6,Q2OTHER,4,dogons,dtm,I,Tomo Kan Dogon,BF
6,Q2OTHER,4,dogose,dos,I,Dogosé,BF
6,Q2OTHER,11,dolimuu,mis,S,Uncoded languages,GH
6,Q2OTHER,4,donsin,mis,S,Uncoded languages,BF
6,Q2OTHER,6,dourou,dur,I,Dii,CM
6,Q2OTHER,6,dschang,ybb,I,Yemba,CM
6,Q2OTHER,36,dumbe,mis,S,Uncoded languages,ZW
6,Q2OTHER,13,duruma,dug,I,Duruma,KE
6,Q2OTHER,8,ebrie,ebr,I,Ebrié,CI
6,Q2OTHER,6,edjagham,mis,S,Uncoded languages,CM
6,Q2OTHER,8,ega,ega,I,Ega,CI
6,Q2OTHER,24,eggon,ego,I,Eggon,NG
6,Q2OTHER,24,egi,mis,S,Uncoded languages,NG
6,Q2OTHER,6,ejagham,etu,I,Ejagham,CM
6,Q2OTHER,6,ejaka,mis,S,Uncoded languages,CM
6,Q2OTHER,6,ejakam,mis,S,Uncoded languages,CM
6,Q2OTHER,21,ekote,eko,I,Koti,MZ
6,Q2OTHER,6,elam eguo,ags,I,Esimbi,CM
6,Q2OTHER,6,elam equ0,ags,I,Esimbi,CM
6,Q2OTHER,6,elam equo,mis,S,Uncoded languages,CM
6,Q2OTHER,24,eleme,elm,I,Eleme,NG
6,Q2OTHER,6,esimbi,ags,I,Esimbi,CM
6,Q2OTHER,6,essimbi,ags,I,Esimbi,CM
6,Q2OTHER,6,etenga,mis,S,Uncoded languages,CM
6,Q2OTHER,6,eton,eto,I,Eton (Cameroon),CM
6,Q2OTHER,11,ewe and fante,ewe,I,Ewe,GH
6,Q2OTHER,6,ewodi,dua,I,Duala,CM
6,Q2OTHER,24,fakama,mis,S,Uncoded languages,NG
6,Q2OTHER,24,fakawa,mis,S,Uncoded languages,NG
6,Q2OTHER,24,fali,fli,I,Fali,NG
6,Q2OTHER,24,faliya,mis,S,Uncoded languages,NG
6,Q2OTHER,6,fang,fan,I,Fang (Equatorial Guinea),CM
6,Q2OTHER,24,femawa,mis,S,Uncoded languages,NG
6,Q2OTHER,4,forgeron (noumou),cpo,I,Kpeego,BF
6,Q2OTHER,11,frafra,gur,I,Farefare,GH
6,Q2OTHER,6,fulami,fub,I,Adamawa Fulfulde,CM
6,Q2OTHER,6,fulami,ful,M,Fulah,CM
6,Q2OTHER,6,fulane,fub,I,Adamawa Fulfulde,CM
6,Q2OTHER,6,fulane,ful,M,Fulah,CM
6,Q2OTHER,6,gabsiki,mis,S,Uncoded languages,CM
6,Q2OTHER,8,gagou,ggu,I,Gagu,CI
6,Q2OTHER,8,gain,mis,S,Uncoded languages,CI
6,Q2OTHER,13,garre,swh,I,Swahili (individual language),KE
6,Q2OTHER,13,garre,swa,M,Swahili (macrolanguage),KE
6,Q2OTHER,11,gawu,mis,S,Uncoded languages,GH
6,Q2OTHER,24,gbagi,gbr,I,Gbagyi,NG
6,Q2OTHER,11,gekyode,acd,I,Gikyode,GH
6,Q2OTHER,6,ghemba,mis,S,Uncoded languages,CM
6,Q2OTHER,13,giriama,nyf,I,Giryama,KE
6,Q2OTHER,8,gnanboua,mis,S,Uncoded languages,CI
6,Q2OTHER,8,gnideboua,mis,S,Uncoded languages,CI
6,Q2OTHER,24,gomu,gwg,I,Moo,NG
6,Q2OTHER,11,gonja,gjn,I,Gonja,GH
6,Q2OTHER,11,gruma,bim,I,Bimoba,GH
6,Q2OTHER,11,grushie,xsm,I,Kasem,GH
6,Q2OTHER,11,guan,gwx,I,Gua,GH
6,Q2OTHER,12,guerze,gkp,I,Guinea Kpelle,GN
6,Q2OTHER,12,guerze,kpe,M,Kpelle,GN
6,Q2OTHER,13,gujarati,guj,I,Gujarati,KE
6,Q2OTHER,12,gurerze,gkp,I,Guinea Kpelle,GN
6,Q2OTHER,12,gurerze,kpe,M,Kpelle,GN
6,Q2OTHER,11,guruni,gur,I,Farefare,GH
6,Q2OTHER,24,gwandara,gwn,I,Gwandara,NG
6,Q2OTHER,24,gwari,gbr,I,Gbagyi,NG
6,Q2OTHER,24,gwong,kdm,I,Kagoma,NG
6,Q2OTHER,2,haoussa,hau,I,Hausa,BJ
6,Q2OTHER,10,haoussa,hau,I,Hausa,GA
6,Q2OTHER,23,haoussa,hau,I,Hausa,NE
6,Q2OTHER,6,ibo,mis,S,Uncoded languages,CM
6,Q2OTHER,24,ichen,ich,I,Etkywan,NG
6,Q2OTHER,30,indian,hin,I,Hindi,SZ
6,Q2OTHER,30,isizulu,zul,I,Zulu,SZ
6,Q2OTHER,6,isu,szv,I,Isu (Fako Division),CM
6,Q2OTHER,28,ithopiwa,amh,I,Amharic,ZA
6,Q2OTHER,24,iyala,yba,I,Yala,NG
6,Q2OTHER,24,jaba,ldb,I,Dũya,NG
6,Q2OTHER,24,jarawa,jgk,I,Gwak,NG
6,Q2OTHER,24,jarawa,jjr,I,Bankal,NG
6,Q2OTHER,24,jenjo,jen,I,Dza,NG
6,Q2OTHER,24,jukum,juk,I,Wapan,NG
6,Q2OTHER,24,jukun,jbu,I,Jukun Takum,NG
6,Q2OTHER,24,jukun wanu,jub,I,Wannu,NG
6,Q2OTHER,11,kaakye,kye,I,Krache,GH
6,Q2OTHER,24,kagara,mis,S,Uncoded languages,NG
6,Q2OTHER,24,kagoma,kdm,I,Kagoma,NG
6,Q2OTHER,24,kagoro,kcg,I,Tyap,NG
6,Q2OTHER,24,kaika,mis,S,Uncoded languages,NG
6,Q2OTHER,24,kaka,yam,I,Yamba,NG
6,Q2OTHER,24,kakabari,mis,S,Uncoded languages,NG
6,Q2OTHER,34,kakwa,keo,I,Kakwa,UG
6,Q2OTHER,24,kalabari,ijn,I,Kalabari,NG
6,Q2OTHER,4,karaboro,mis,S,Uncoded languages,BF
6,Q2OTHER,11,kasari,mis,S,Uncoded languages,GH
6,Q2OTHER,11,kasem,xsm,I,Kasem,GH
6,Q2OTHER,24,kataf,kcg,I,Tyap,NG
6,Q2OTHER,24,katongu,mis,S,Uncoded languages,NG
6,Q2OTHER,28,khoi,naq,I,Khoekhoe,ZA
6,Q2OTHER,28,khois,naq,I,Khoekhoe,ZA
6,Q2OTHER,28,khoisan,naq,I,Khoekhoe,ZA
6,Q2OTHER,31,kiarusha,mis,S,Uncoded languages,TZ
6,Q2OTHER,31,kibembe,bmb,I,Bembe,TZ
6,Q2OTHER,31,kibena,bez,I,Bena (Tanzania),TZ
6,Q2OTHER,31,kibondei,bou,I,Bondei,TZ
6,Q2OTHER,31,kiborana,mis,S,Uncoded languages,TZ
6,Q2OTHER,31,kibungu,wun,I,Bungu,TZ
6,Q2OTHER,31,kidigo,dig,I,Digo,TZ
6,Q2OTHER,31,kidoe,doe,I,Doe,TZ
6,Q2OTHER,31,kigunya,mis,S,Uncoded languages,TZ
6,Q2OTHER,31,kiha,haq,I,Ha,TZ
6,Q2OTHER,31,kihangaza,han,I,Hangaza,TZ
6,Q2OTHER,31,kiikizu,ikz,I,Ikizu,TZ
6,Q2OTHER,31,kiiraq,irk,I,Iraqw,TZ
6,Q2OTHER,31,kijahidiri,irk,I,Iraqw,TZ
6,Q2OTHER,31,kijaluo,mis,S,Uncoded languages,TZ
6,Q2OTHER,31,kijita,jit,I,Jita,TZ
6,Q2OTHER,31,kikabwa,cwa,I,Kabwa,TZ
6,Q2OTHER,31,kikaguru,mis,S,Uncoded languages,TZ
6,Q2OTHER,31,kikahe,hka,I,Kahe,TZ
6,Q2OTHER,31,kikara,reg,I,Kara (Tanzania),TZ
6,Q2OTHER,31,kikerewe,ked,I,Kerewe,TZ
6,Q2OTHER,31,kikimbu,kiv,I,Kimbu,TZ
6,Q2OTHER,31,kikine,ssc,I,Suba-Simbiti,TZ
6,Q2OTHER,31,kikinga,zga,I,Kinga,TZ
6,Q2OTHER,31,kikonongo,kcz,I,Konongo,TZ
6,Q2OTHER,31,kikwaya,kya,I,Kwaya,TZ
6,Q2OTHER,24,kilba babar,bwr,I,Bura-Pabir,NG
6,Q2OTHER,31,kilongo,mis,S,Uncoded languages,TZ
6,Q2OTHER,31,kimakunduchi,mis,S,Uncoded languages,TZ
6,Q2OTHER,31,kimakuwa,mis,S,Uncoded languages,TZ
6,Q2OTHER,31,kimalili,mis,S,Uncoded languages,TZ
6,Q2OTHER,31,kimang'ati,mis,S,Uncoded languages,TZ
6,Q2OTHER,31,kimatambwe,mis,S,Uncoded languages,TZ
6,Q2OTHER,31,kimatengo,mgv,I,Matengo,TZ
6,Q2OTHER,31,kimatumbi,mgw,I,Matumbi,TZ
6,Q2OTHER,31,kimazuruni,mis,S,Uncoded languages,TZ
6,Q2OTHER,31,kimbulu,mis,S,Uncoded languages,TZ
6,Q2OTHER,31,kimwera,mwe,I,Mwera (Chimwera),TZ
6,Q2OTHER,31,kindali,ndh,I,Ndali,TZ
6,Q2OTHER,31,kindamba,ndj,I,Ndamba,TZ
6,Q2OTHER,31,kindendeule,dne,I,Ndendeule,TZ
6,Q2OTHER,31,kindengereko,ndg,I,Ndengereko,TZ
6,Q2OTHER,31,kindonde,njd,I,Ndonde Hamba,TZ
6,Q2OTHER,31,kindyewe,ked,I,Kerewe,TZ
6,Q2OTHER,31,kingindo,nnq,I,Ngindo,TZ
6,Q2OTHER,31,kinguu,ngp,I,Ngulu,TZ
6,Q2OTHER,31,kinyambo,now,I,Nyambo,TZ
6,Q2OTHER,31,kinyamwanga,mwn,I,Nyamwanga,TZ
6,Q2OTHER,31,kinyantuzu,mis,S,Uncoded languages,TZ
6,Q2OTHER,34,kinyarwanda,kin,I,Kinyarwanda,UG
6,Q2OTHER,31,kinyasa,mpa,I,Mpoto,TZ
6,Q2OTHER,31,kinyaturu,rim,I,Nyaturu,TZ
6,Q2OTHER,31,kinyiha,nkt,I,Nyika (Tanzania),TZ
6,Q2OTHER,31,kinyimbo,now,I,Nyambo,TZ
6,Q2OTHER,31,kinyiramba,nim,I,Nilamba,TZ
6,Q2OTHER,31,kinyisanzu,isn,I,Isanzu,TZ
6,Q2OTHER,31,kipangwa,pbr,I,Pangwa,TZ
6,Q2OTHER,31,kipemba,swh,I,Swahili (individual language),TZ
6,Q2OTHER,31,kipemba,swa,M,Swahili (macrolanguage),TZ
6,Q2OTHER,31,kipogoro,poy,I,Pogolo,TZ
6,Q2OTHER,13,kipsigis,sgc,I,Kipsigis,KE
6,Q2OTHER,13,kipsigis,kln,M,Kalenjin,KE
6,Q2OTHER,31,kirangi,lag,I,Langi,TZ
6,Q2OTHER,31,kiruri,kya,I,Kwaya,TZ
6,Q2OTHER,31,kisafwa,sbk,I,Safwa,TZ
6,Q2OTHER,31,kisambaa,ksb,I,Shambala,TZ
6,Q2OTHER,31,kisandawe,sad,I,Sandawe,TZ
6,Q2OTHER,31,kisangu,sbp,I,Sangu (Tanzania),TZ
6,Q2OTHER,31,kisegeju,seg,I,Segeju,TZ
6,Q2OTHER,31,kishirazi,mis,S,Uncoded languages,TZ
6,Q2OTHER,31,kisimbiti,ssc,I,Suba-Simbiti,TZ
6,Q2OTHER,31,kisizaki,ikz,I,Ikizu,TZ
6,Q2OTHER,12,kissi,kqs,I,Northern Kissi,GN
6,Q2OTHER,31,kisubi,suj,I,Shubi,TZ
6,Q2OTHER,31,kisumbwa,suw,I,Sumbwa,TZ
6,Q2OTHER,31,kitaturu,mis,S,Uncoded languages,TZ
6,Q2OTHER,31,kitongwe,tny,I,Tongwe,TZ
6,Q2OTHER,31,kitumbatu,mis,S,Uncoded languages,TZ
6,Q2OTHER,31,kiwanji,wbi,I,Vwanji,TZ
6,Q2OTHER,31,kiyao,yao,I,Yao,TZ
6,Q2OTHER,31,kizanaki,zak,I,Zanaki,TZ
6,Q2OTHER,31,kizaramo,zaj,I,Zaramo,TZ
6,Q2OTHER,31,kizigua,ziw,I,Zigula,TZ
6,Q2OTHER,31,kizinza,zin,I,Zinza,TZ
6,Q2OTHER,8,kodia,kwp,I,Kodia,CI
6,Q2OTHER,11,kokomba,xon,I,Konkomba,GH
6,Q2OTHER,6,kom,nfu,I,Mfumte,CM
6,Q2OTHER,4,komono,kqm,I,Khisa,BF
6,Q2OTHER,8,komonon,mis,S,Uncoded languages,CI
6,Q2OTHER,24,kona,juo,I,Jiba,NG
6,Q2OTHER,26,koniadie,mis,S,Uncoded languages,SN
6,Q2OTHER,12,kono,knu,I,Kono (Guinea),GN
6,Q2OTHER,12,konon,knu,I,Kono (Guinea),GN
6,Q2OTHER,6,kotoko,mis,S,Uncoded languages,CM
6,Q2OTHER,11,kotokoli,kdh,I,Tem,GH
6,Q2OTHER,11,kotokoli/chamba,kdh,I,Tem,GH
6,Q2OTHER,8,kouzie,nwb,I,Nyabwa,CI
6,Q2OTHER,8,koyaka,kga,I,Koyaga,CI
6,Q2OTHER,11,krakyi,kye,I,Krache,GH
6,Q2OTHER,11,krobo,ada,I,Adangme,GH
6,Q2OTHER,8,krobou,kxb,I,Krobu,CI
6,Q2OTHER,34,kumam,kdi,I,Kumam,UG
6,Q2OTHER,13,kuria,kuj,I,Kuria,KE
6,Q2OTHER,11,kusal,kus,I,Kusaal,GH
6,Q2OTHER,24,kuteb,kub,I,Kutep,NG
6,Q2OTHER,11,kwahu,twi,I,Twi,GH
6,Q2OTHER,11,kwahu,aka,M,Akan,GH
6,Q2OTHER,6,laka,mis,S,Uncoded languages,CM
6,Q2OTHER,35,lambia,mis,S,Uncoded languages,ZM
6,Q2OTHER,6,lambo,mis,S,Uncoded languages,CM
6,Q2OTHER,12,landouma,ldm,I,Landoma,GN
6,Q2OTHER,29,language almapat,mis,S,Uncoded languages,SD
6,Q2OTHER,29,language fellata,fub,I,Adamawa Fulfulde,SD
6,Q2OTHER,29,language fellata,ful,M,Fulah,SD
6,Q2OTHER,29,language inqasna,mis,S,Uncoded languages,SD
6,Q2OTHER,24,lanta,mis,S,Uncoded languages,NG
6,Q2OTHER,24,laru,lan,I,Laru,NG
6,Q2OTHER,24,lawabe,mis,S,Uncoded languages,NG
6,Q2OTHER,34,lendu,led,I,Lendu,UG
6,Q2OTHER,21,ligete,mis,S,Uncoded languages,MZ
6,Q2OTHER,21,ligode,mis,S,Uncoded languages,MZ
6,Q2OTHER,21,ligote,mis,S,Uncoded languages,MZ
6,Q2OTHER,21,ligoute,mis,S,Uncoded languages,MZ
6,Q2OTHER,11,likpakpaln,xon,I,Konkomba,GH
6,Q2OTHER,6,limbum,lmp,I,Limbum,CM
6,Q2OTHER,21,lingua mapex,por,I,Portuguese,MZ
6,Q2OTHER,11,logba,lgq,I,Logba,GH
6,Q2OTHER,32,logba,dop,I,Lukpa,TG
6,Q2OTHER,21,loriba,mis,S,Uncoded languages,MZ
6,Q2OTHER,36,lozwi,mis,S,Uncoded languages,ZW
6,Q2OTHER,35,luchazi,lch,I,Luchazi,ZM
6,Q2OTHER,34,ludama,adh,I,Adhola,UG
6,Q2OTHER,34,lufumbira,kin,I,Kinyarwanda,UG
6,Q2OTHER,34,lugwere,gwr,I,Gwere,UG
6,Q2OTHER,34,lujaluwo,alz,I,Alur,UG
6,Q2OTHER,34,lulamogi,xog,I,Soga,UG
6,Q2OTHER,34,luluri,ruc,I,Ruuli,UG
6,Q2OTHER,24,lumama,mis,S,Uncoded languages,NG
6,Q2OTHER,24,lunguda,lnu,I,Longuda,NG
6,Q2OTHER,21,luniga,mis,S,Uncoded languages,MZ
6,Q2OTHER,34,lunyala,ruc,I,Ruuli,UG
6,Q2OTHER,34,lunyara,ruc,I,Ruuli,UG
6,Q2OTHER,34,luo,ach,I,Acoli,UG
6,Q2OTHER,34,luo,alz,I,Alur,UG
6,Q2OTHER,34,lururu,ruc,I,Ruuli,UG
6,Q2OTHER,8,m'batto,gwa,I,Mbato,CI
6,Q2OTHER,21,mabawe,mis,S,Uncoded languages,MZ
6,Q2OTHER,6,mabi,nmg,I,Kwasio,CM
6,Q2OTHER,6,mada,mxu,I,Mada (Cameroon),CM
6,Q2OTHER,22,mafwe,mis,S,Uncoded languages,NA
6,Q2OTHER,21,mahawea,mis,S,Uncoded languages,MZ
6,Q2OTHER,8,mahohka,mxx,I,Mahou,CI
6,Q2OTHER,8,mahouka,mxx,I,Mahou,CI
6,Q2OTHER,21,maindo,cwb,I,Maindo,MZ
6,Q2OTHER,11,mampruli,maw,I,Mampruli,GH
6,Q2OTHER,24,mamunye,mis,S,Uncoded languages,NG
6,Q2OTHER,6,mandara,mfi,I,Wandala,CM
6,Q2OTHER,4,mandarai,mis,S,Uncoded languages,BF
6,Q2OTHER,21,manhgue,mis,S,Uncoded languages,MZ
6,Q2OTHER,21,manhungue,mxc,I,Manyika,MZ
6,Q2OTHER,26,mankagne,mis,S,Uncoded languages,SN
6,Q2OTHER,21,maone,mis,S,Uncoded languages,MZ
6,Q2OTHER,21,mapex,mis,S,Uncoded languages,MZ
6,Q2OTHER,13,maragoli,rag,I,Logooli,KE
6,Q2OTHER,13,maragoli,luy,M,Luyia,KE
6,Q2OTHER,21,maronga,rng,I,Ronga,MZ
6,Q2OTHER,6,massa,mcn,I,Masana,CM
6,Q2OTHER,21,massema,seh,I,Sena,MZ
6,Q2OTHER,26,massonke,mis,S,Uncoded languages,SN
6,Q2OTHER,21,matcwe,mis,S,Uncoded languages,MZ
6,Q2OTHER,21,mateu,mis,S,Uncoded languages,MZ
6,Q2OTHER,21,matewe,twx,I,Tewe,MZ
6,Q2OTHER,21,mateyu,mis,S,Uncoded languages,MZ
6,Q2OTHER,21,matowe,twx,I,Tewe,MZ
6,Q2OTHER,21,matsua,tsc,I,Tswa,MZ
6,Q2OTHER,21,matswa,tsc,I,Tswa,MZ
6,Q2OTHER,21,matxsua,tsc,I,Tswa,MZ
6,Q2OTHER,36,maungwe,mis,S,Uncoded languages,ZW
6,Q2OTHER,26,maure,mis,S,Uncoded languages,SN
6,Q2OTHER,6,mba vele,bag,I,Tuki,CM
6,Q2OTHER,6,mbamoise,mis,S,Uncoded languages,CM
6,Q2OTHER,6,mbang,bkh,I,Bakoko,CM
6,Q2OTHER,6,mbe mbe,mis,S,Uncoded languages,CM
6,Q2OTHER,6,mbesah,mis,S,Uncoded languages,CM
6,Q2OTHER,6,mbessa,mis,S,Uncoded languages,CM
6,Q2OTHER,6,mbo,mbo,I,Mbo (Cameroon),CM
6,Q2OTHER,6,mbo'o,mis,S,Uncoded languages,CM
6,Q2OTHER,6,mbororo,fuv,I,Nigerian Fulfulde,CM
6,Q2OTHER,6,mbororo,ful,M,Fulah,CM
6,Q2OTHER,36,mdombe,mis,S,Uncoded languages,ZW
6,Q2OTHER,21,medindo,cwb,I,Maindo,MZ
6,Q2OTHER,6,mefi,mis,S,Uncoded languages,CM
6,Q2OTHER,6,meta,mis,S,Uncoded languages,CM
6,Q2OTHER,6,metsa,mis,S,Uncoded languages,CM
6,Q2OTHER,6,mezima,mis,S,Uncoded languages,CM
6,Q2OTHER,22,mhalangwe,mis,S,Uncoded languages,NA
6,Q2OTHER,24,michinka,mis,S,Uncoded languages,NG
6,Q2OTHER,12,mikhifore,mfg,I,Mogofin,GN
6,Q2OTHER,12,mikifore,mfg,I,Mogofin,GN
6,Q2OTHER,35,mikundu,mis,S,Uncoded languages,ZM
6,Q2OTHER,24,minchika,mis,S,Uncoded languages,NG
6,Q2OTHER,6,misanje,mis,S,Uncoded languages,CM
6,Q2OTHER,11,mo,mzw,I,Deg,GH
6,Q2OTHER,6,moghagno,mis,S,Uncoded languages,CM
6,Q2OTHER,21,monga,rng,I,Ronga,MZ
6,Q2OTHER,6,monghaka,mis,S,Uncoded languages,CM
6,Q2OTHER,21,moniaco,mhm,I,Makhuwa-Moniga,MZ
6,Q2OTHER,21,moniga,mhm,I,Makhuwa-Moniga,MZ
6,Q2OTHER,3,morotsi,mis,S,Uncoded languages,BW
6,Q2OTHER,11,moshie,mos,I,Mossi,GH
6,Q2OTHER,18,mossi,mos,I,Mossi,ML
6,Q2OTHER,32,mossi,mos,I,Mossi,TG
6,Q2OTHER,23,mossicthe,mis,S,Uncoded languages,NE
6,Q2OTHER,6,moudani,mis,S,Uncoded languages,CM
6,Q2OTHER,6,moudini,mis,S,Uncoded languages,CM
6,Q2OTHER,6,mougoum,mis,S,Uncoded languages,CM
6,Q2OTHER,6,moundang,mua,I,Mundang,CM
6,Q2OTHER,6,mousgoum,mug,I,Musgu,CM
6,Q2OTHER,6,mousgoun,mug,I,Musgu,CM
6,Q2OTHER,21,mtsua,tsc,I,Tswa,MZ
6,Q2OTHER,21,muali,mis,S,Uncoded languages,MZ
6,Q2OTHER,21,muandi,wmw,I,Mwani,MZ
6,Q2OTHER,21,muani,wmw,I,Mwani,MZ
6,Q2OTHER,21,muany,wmw,I,Mwani,MZ
6,Q2OTHER,6,mubako,muo,I,Nyong,CM
6,Q2OTHER,6,mudele,mis,S,Uncoded languages,CM
6,Q2OTHER,6,mugaka,mis,S,Uncoded languages,CM
6,Q2OTHER,34,mulamogi,xog,I,Soga,UG
6,Q2OTHER,24,mumugar,mis,S,Uncoded languages,NG
6,Q2OTHER,24,mumuye,mzm,I,Mumuye,NG
6,Q2OTHER,21,munga,mhm,I,Makhuwa-Moniga,MZ
6,Q2OTHER,21,muni,mis,S,Uncoded languages,MZ
6,Q2OTHER,21,muninga,mhm,I,Makhuwa-Moniga,MZ
6,Q2OTHER,34,munyabindi,mis,S,Uncoded languages,UG
6,Q2OTHER,13,munyaya,orc,I,Orma,KE
6,Q2OTHER,13,munyaya,orm,M,Oromo,KE
6,Q2OTHER,24,mupun,sur,I,Mwaghavul,NG
6,Q2OTHER,34,murundi,run,I,Rundi,UG
6,Q2OTHER,6,musgum,mug,I,Musgu,CM
6,Q2OTHER,36,mushangwe,mis,S,Uncoded languages,ZW
6,Q2OTHER,24,mwangavul,sur,I,Mwaghavul,NG
6,Q2OTHER,11,nabdam,gur,I,Farefare,GH
6,Q2OTHER,11,nahumuru,ncu,I,Chumburung,GH
6,Q2OTHER,21,naindo,cwb,I,Maindo,MZ
6,Q2OTHER,36,nambya,nmq,I,Nambya,ZW
6,Q2OTHER,21,namica,mis,S,Uncoded languages,MZ
6,Q2OTHER,13,nandi,niq,I,Nandi,KE
6,Q2OTHER,13,nandi,kln,M,Kalenjin,KE
6,Q2OTHER,11,nankani,gur,I,Farefare,GH
6,Q2OTHER,21,naoniga,mis,S,Uncoded languages,MZ
6,Q2OTHER,8,naturalise,und,S,Undetermined,CI
6,Q2OTHER,11,nawuri,naw,I,Nawuri,GH
6,Q2OTHER,6,nchani,mis,S,Uncoded languages,CM
6,Q2OTHER,6,nchanih,mis,S,Uncoded languages,CM
6,Q2OTHER,24,ndala,ndr,I,Ndoola,NG
6,Q2OTHER,3,ndebele,nde,I,North Ndebele,BW
6,Q2OTHER,30,ndebele,nbl,I,South Ndebele,SZ
6,Q2OTHER,35,ndebele,nde,I,North Ndebele,ZM
6,Q2OTHER,6,ngambaye,mis,S,Uncoded languages,CM
6,Q2OTHER,24,ngas,anc,I,Ngas,NG
6,Q2OTHER,6,ngemba,nge,I,Ngemba,CM
6,Q2OTHER,6,ngoa,mis,S,Uncoded languages,CM
6,Q2OTHER,21,ngony,mis,S,Uncoded languages,MZ
6,Q2OTHER,6,ngou,mis,S,Uncoded languages,CM
6,Q2OTHER,21,ngungue,nyu,I,Nyungwe,MZ
6,Q2OTHER,6,nguo,mis,S,Uncoded languages,CM
6,Q2OTHER,6,ngyemboon,nnh,I,Ngiemboon,CM
6,Q2OTHER,21,nhugue,nyu,I,Nyungwe,MZ
6,Q2OTHER,21,nhumgue,nyu,I,Nyungwe,MZ
6,Q2OTHER,21,nhungoe,nyu,I,Nyungwe,MZ
6,Q2OTHER,21,nhungue,nyu,I,Nyungwe,MZ
6,Q2OTHER,21,nhunguem,nyu,I,Nyungwe,MZ
6,Q2OTHER,21,nhungwe,nyu,I,Nyungwe,MZ
6,Q2OTHER,21,nhunhue,nyu,I,Nyungwe,MZ
6,Q2OTHER,21,nhunque,nyu,I,Nyungwe,MZ
6,Q2OTHER,24,ninzom,nin,I,Ninzo,NG
6,Q2OTHER,36,nleya zambia,mis,S,Uncoded languages,ZW
6,Q2OTHER,6,nnaga eboko,mis,S,Uncoded languages,CM
6,Q2OTHER,6,noni,nhu,I,Noone,CM
6,Q2OTHER,6,nsie,mis,S,Uncoded languages,CM
6,Q2OTHER,6,nso,lns,I,Lamnso',CM
6,Q2OTHER,35,nswaka,mis,S,Uncoded languages,ZM
6,Q2OTHER,13,nubi,kcn,I,Nubi,KE
6,Q2OTHER,24,numana,nbr,I,Numana-Nunku-Gbantu-Numbu,NG
6,Q2OTHER,21,nunga,mis,S,Uncoded languages,MZ
6,Q2OTHER,21,nuto,mis,S,Uncoded languages,MZ
6,Q2OTHER,24,nwangavul,sur,I,Mwaghavul,NG
6,Q2OTHER,24,nyandang,ynq,I,Yendang,NG
6,Q2OTHER,21,nyanja,nya,I,Nyanja,MZ
6,Q2OTHER,36,nyanja,nya,I,Nyanja,ZW
6,Q2OTHER,13,nyarwanda,kin,I,Kinyarwanda,KE
6,Q2OTHER,13,nyasa,mis,S,Uncoded languages,KE
6,Q2OTHER,22,nyemba,mis,S,Uncoded languages,NA
6,Q2OTHER,21,nyongue,nyu,I,Nyungwe,MZ
6,Q2OTHER,21,nyuenge,nyu,I,Nyungwe,MZ
6,Q2OTHER,21,nyugue,nyu,I,Nyungwe,MZ
6,Q2OTHER,21,nyungue,nyu,I,Nyungwe,MZ
6,Q2OTHER,21,nyungunhe,nyu,I,Nyungwe,MZ
6,Q2OTHER,11,nzema,nzi,I,Nzima,GH
6,Q2OTHER,6,obang,etu,I,Ejagham,CM
6,Q2OTHER,24,obodu,mis,S,Uncoded languages,NG
6,Q2OTHER,8,odienneka,jod,I,Wojenaka,CI
6,Q2OTHER,24,ogae,mis,S,Uncoded languages,NG
6,Q2OTHER,24,ogba,ogc,I,Ogbah,NG
6,Q2OTHER,13,ogiek,oki,I,Okiek,KE
6,Q2OTHER,13,ogiek,kln,M,Kalenjin,KE
6,Q2OTHER,24,okirika,okr,I,Kirike,NG
6,Q2OTHER,11,okre,mis,S,Uncoded languages,GH
6,Q2OTHER,24,okrika,okr,I,Kirike,NG
6,Q2OTHER,6,oku,oku,I,Oku,CM
6,Q2OTHER,6,oroko,bdu,I,Oroko,CM
6,Q2OTHER,24,oron,orx,I,Oro,NG
6,Q2OTHER,6,oshie,nsh,I,Ngoshie,CM
6,Q2OTHER,24,owan,mis,S,Uncoded languages,NG
6,Q2OTHER,24,panso,lns,I,Lamnso',NG
6,Q2OTHER,8,peulh,ffm,I,Maasina Fulfulde,CI
6,Q2OTHER,8,peulh,ful,M,Fulah,CI
6,Q2OTHER,32,peulh,fue,I,Borgu Fulfulde,TG
6,Q2OTHER,32,peulh,ful,M,Fulah,TG
6,Q2OTHER,6,pinyin,pny,I,Pinyin,CM
6,Q2OTHER,30,portuguese,por,I,Portuguese,SZ
6,Q2OTHER,13,rendille,rel,I,Rendille,KE
6,Q2OTHER,21,ronga,rng,I,Ronga,MZ
6,Q2OTHER,34,rufumbira,kin,I,Kinyarwanda,UG
6,Q2OTHER,34,rungungu,rub,I,Gungu,UG
6,Q2OTHER,34,runyarwanda,kin,I,Kinyarwanda,UG
6,Q2OTHER,34,ruruli,ruc,I,Ruuli,UG
6,Q2OTHER,34,rusongora,koo,I,Konzo,UG
6,Q2OTHER,13,sabaot,spy,I,Sabaot,KE
6,Q2OTHER,13,sabaot,kln,M,Kalenjin,KE
6,Q2OTHER,35,sala,shq,I,Sala,ZM
6,Q2OTHER,11,sampa,mis,S,Uncoded languages,GH
6,Q2OTHER,22,san,ktz,I,Ju/'hoan,NA
6,Q2OTHER,6,sara,sba,I,Ngambay,CM
6,Q2OTHER,6,sawa,dua,I,Duala,CM
6,Q2OTHER,24,sayawa,say,I,Saya,NG
6,Q2OTHER,11,sefwi,sfw,I,Sehwi,GH
6,Q2OTHER,3,sekhurutsi,tsn,I,Tswana,BW
6,Q2OTHER,3,senanjwa,mis,S,Uncoded languages,BW
6,Q2OTHER,3,sepedi,nso,I,Pedi,BW
6,Q2OTHER,3,seshona,sna,I,Shona,BW
6,Q2OTHER,3,setebele,nde,I,North Ndebele,BW
6,Q2OTHER,3,setswapong,two,I,Tswapong,BW
6,Q2OTHER,3,sexhereko,her,I,Herero,BW
6,Q2OTHER,3,sexhosa,xho,I,Xhosa,BW
6,Q2OTHER,3,sezuru,sna,I,Shona,BW
6,Q2OTHER,36,shangani,tso,I,Tsonga,ZW
6,Q2OTHER,3,shona,sna,I,Shona,BW
6,Q2OTHER,21,shona,sna,I,Shona,MZ
6,Q2OTHER,3,shona/sezuru,sna,I,Shona,BW
6,Q2OTHER,8,siaka,kga,I,Koyaga,CI
6,Q2OTHER,36,sidombe,mis,S,Uncoded languages,ZW
6,Q2OTHER,22,sifwe,fwe,I,Fwe,NA
6,Q2OTHER,11,sissali,sil,I,Tumulung Sisaala,GH
6,Q2OTHER,11,sissali,ssl,I,Western Sisaala,GH
6,Q2OTHER,24,siyawa,mis,S,Uncoded languages,NG
6,Q2OTHER,6,so'o,mis,S,Uncoded languages,CM
6,Q2OTHER,2,sola,soy,I,Miyobe,BJ
6,Q2OTHER,32,sola,soy,I,Miyobe,TG
6,Q2OTHER,11,someja,gaa,I,Ga,GH
6,Q2OTHER,6,soro,mis,S,Uncoded languages,CM
6,Q2OTHER,13,suba,sxb,I,Suba,KE
6,Q2OTHER,36,suthu,nso,I,Pedi,ZW
6,Q2OTHER,30,swahili,swh,I,Swahili (individual language),SZ
6,Q2OTHER,30,swahili,swa,M,Swahili (macrolanguage),SZ
6,Q2OTHER,35,swahili,mis,S,Uncoded languages,ZM
6,Q2OTHER,8,tagbanan,mis,S,Uncoded languages,CI
6,Q2OTHER,11,talensi,gur,I,Farefare,GH
6,Q2OTHER,4,tamacheck,mis,S,Uncoded languages,BF
6,Q2OTHER,32,tamberma,tbz,I,Ditammari,TG
6,Q2OTHER,11,tampulma,tpm,I,Tampulma,GH
6,Q2OTHER,16,tanala,plt,I,Plateau Malagasy,MG
6,Q2OTHER,16,tanala,mlg,M,Malagasy,MG
6,Q2OTHER,26,tanda,mis,S,Uncoded languages,SN
6,Q2OTHER,24,tangale,tan,I,Tangale,NG
6,Q2OTHER,24,tangali,tan,I,Tangale,NG
6,Q2OTHER,11,tapulsi,tpm,I,Tampulma,GH
6,Q2OTHER,24,tarok,yer,I,Tarok,NG
6,Q2OTHER,12,tcheddere,mis,S,Uncoded languages,GN
6,Q2OTHER,21,tchitchewa,nya,I,Nyanja,MZ
6,Q2OTHER,21,tchthewa,nya,I,Nyanja,MZ
6,Q2OTHER,24,tera,ttr,I,Tera,NG
6,Q2OTHER,13,teso,teo,I,Teso,KE
6,Q2OTHER,21,tewe,twx,I,Tewe,MZ
6,Q2OTHER,3,tjimbanderu,mis,S,Uncoded languages,BW
6,Q2OTHER,12,toma,tod,I,Toma,GN
6,Q2OTHER,22,totela,mis,S,Uncoded languages,NA
6,Q2OTHER,12,touba,mis,S,Uncoded languages,GN
6,Q2OTHER,8,toura,neb,I,Toura (Côte d'Ivoire),CI
6,Q2OTHER,4,toussian,mis,S,Uncoded languages,BF
6,Q2OTHER,36,tsenga,nse,I,Nsenga,ZW
6,Q2OTHER,24,tula,tul,I,Tula,NG
6,Q2OTHER,4,turka,tuz,I,Turka,BF
6,Q2OTHER,4,vigue,vig,I,Viemo,BF
6,Q2OTHER,11,waala,wlx,I,Wali (Ghana),GH
6,Q2OTHER,24,waja,wja,I,Waja,NG
6,Q2OTHER,8,wan,wan,I,Wan,CI
6,Q2OTHER,11,wangara,mis,S,Uncoded languages,GH
6,Q2OTHER,6,wibum,mis,S,Uncoded languages,CM
6,Q2OTHER,6,wimbum,lmp,I,Limbum,CM
6,Q2OTHER,8,wobe,wob,I,Wè Northern,CI
6,Q2OTHER,8,worodougou,jud,I,Worodougou,CI
6,Q2OTHER,24,wurkum,piy,I,Piya-Kwonci,NG
6,Q2OTHER,24,wurkun,piy,I,Piya-Kwonci,NG
6,Q2OTHER,21,xitsua,tsc,I,Tswa,MZ
6,Q2OTHER,21,xitswa,tsc,I,Tswa,MZ
6,Q2OTHER,24,yakuri,yaz,I,Lokaa,NG
6,Q2OTHER,24,yala,yba,I,Yala,NG
6,Q2OTHER,6,yambassa,yav,I,Yangben,CM
6,Q2OTHER,6,yamben,mis,S,Uncoded languages,CM
6,Q2OTHER,32,yanga,mos,I,Mossi,TG
6,Q2OTHER,8,yaoure,yre,I,Yaouré,CI
6,Q2OTHER,6,yebekol,mis,S,Uncoded languages,CM
6,Q2OTHER,3,zezuru,sna,I,Shona,BW
6,Q2OTHER,30,zulu,zul,I,Zulu,SZ
6,Q2OTHER,24,zuru,dri,I,C'Lela,NG
